; 3D PRINTER SIMULATOR - 3DBENCHY TORTURE TEST
; Dimensions: 60.0 x 31.0 x 48.0 mm
G21
G90
M82
M140 S60
M104 S205
M190 S60
M109 S205
G28
G92 E0
G1 Z2.0 F3000
G1 X70 Y90 F6000
;LAYER:0
;LAYER_CHANGE Z=0.20
G1 Z0.20 F1500
;TYPE:WALL-OUTER
G1 X90.00 Y110.00 F4500
G1 X98.00 Y96.00 E0.5805 F1800
G1 X125.00 Y96.00 E1.5525 F1800
G1 X135.00 Y100.20 E1.9429 F1800
G1 X138.00 Y110.00 E2.3119 F1800
G1 X135.00 Y119.80 E2.6809 F1800
G1 X125.00 Y124.00 E3.0713 F1800
G1 X98.00 Y124.00 E4.0433 F1800
G1 X90.00 Y110.00 E4.6238 F1800
;LAYER:1
;LAYER_CHANGE Z=0.50
G1 Z0.50 F1500
M106 S255
;TYPE:WALL-OUTER
G1 X89.60 Y110.00 F4500
G1 X97.76 Y95.75 E5.2150 F1800
G1 X125.00 Y95.75 E6.1956 F1800
G1 X135.00 Y100.03 E6.5871 F1800
G1 X138.00 Y110.00 E6.9621 F1800
G1 X135.00 Y119.97 E7.3371 F1800
G1 X125.00 Y124.25 E7.7286 F1800
G1 X97.76 Y124.25 E8.7093 F1800
G1 X89.60 Y110.00 E9.3004 F1800
;LAYER:2
;LAYER_CHANGE Z=0.80
G1 Z0.80 F1500
;TYPE:WALL-OUTER
G1 X89.20 Y110.00 F4500
G1 X97.52 Y95.50 E9.9022 F1800
G1 X125.00 Y95.50 E10.8915 F1800
G1 X135.00 Y99.85 E11.2841 F1800
G1 X138.00 Y110.00 E11.6651 F1800
G1 X135.00 Y120.15 E12.0462 F1800
G1 X125.00 Y124.50 E12.4387 F1800
G1 X97.52 Y124.50 E13.4280 F1800
G1 X89.20 Y110.00 E14.0299 F1800
;LAYER:3
;LAYER_CHANGE Z=1.10
G1 Z1.10 F1500
;TYPE:WALL-OUTER
G1 X88.80 Y110.00 F4500
G1 X97.28 Y95.25 E14.6424 F1800
G1 X125.00 Y95.25 E15.6403 F1800
G1 X135.00 Y99.67 E16.0339 F1800
G1 X138.00 Y110.00 E16.4210 F1800
G1 X135.00 Y120.33 E16.8081 F1800
G1 X125.00 Y124.75 E17.2018 F1800
G1 X97.28 Y124.75 E18.1997 F1800
G1 X88.80 Y110.00 E18.8122 F1800
;LAYER:4
;LAYER_CHANGE Z=1.40
G1 Z1.40 F1500
;TYPE:WALL-OUTER
G1 X88.40 Y110.00 F4500
G1 X97.04 Y95.00 E19.4354 F1800
G1 X125.00 Y95.00 E20.4419 F1800
G1 X135.00 Y99.50 E20.8367 F1800
G1 X138.00 Y110.00 E21.2298 F1800
G1 X135.00 Y120.50 E21.6229 F1800
G1 X125.00 Y125.00 E22.0177 F1800
G1 X97.04 Y125.00 E23.0243 F1800
G1 X88.40 Y110.00 E23.6474 F1800
;LAYER:5
;LAYER_CHANGE Z=1.70
G1 Z1.70 F1500
;TYPE:WALL-OUTER
G1 X88.00 Y110.00 F4500
G1 X96.80 Y94.75 E24.2813 F1800
G1 X125.00 Y94.75 E25.2965 F1800
G1 X135.00 Y99.33 E25.6924 F1800
G1 X138.00 Y110.00 E26.0916 F1800
G1 X135.00 Y120.67 E26.4907 F1800
G1 X125.00 Y125.25 E26.8866 F1800
G1 X96.80 Y125.25 E27.9018 F1800
G1 X88.00 Y110.00 E28.5357 F1800
;LAYER:6
;LAYER_CHANGE Z=2.00
G1 Z2.00 F1500
;TYPE:WALL-OUTER
G1 X87.60 Y110.00 F4500
G1 X96.56 Y94.50 E29.1802 F1800
G1 X125.00 Y94.50 E30.2040 F1800
G1 X135.00 Y99.15 E30.6011 F1800
G1 X138.00 Y110.00 E31.0063 F1800
G1 X135.00 Y120.85 E31.4116 F1800
G1 X125.00 Y125.50 E31.8086 F1800
G1 X96.56 Y125.50 E32.8324 F1800
G1 X87.60 Y110.00 E33.4770 F1800
;LAYER:7
;LAYER_CHANGE Z=2.30
G1 Z2.30 F1500
;TYPE:WALL-OUTER
G1 X87.20 Y110.00 F4500
G1 X96.32 Y94.25 E34.1322 F1800
G1 X125.00 Y94.25 E35.1646 F1800
G1 X135.00 Y98.97 E35.5628 F1800
G1 X138.00 Y110.00 E35.9741 F1800
G1 X135.00 Y121.03 E36.3855 F1800
G1 X125.00 Y125.75 E36.7836 F1800
G1 X96.32 Y125.75 E37.8161 F1800
G1 X87.20 Y110.00 E38.4713 F1800
;LAYER:8
;LAYER_CHANGE Z=2.60
G1 Z2.60 F1500
;TYPE:WALL-OUTER
G1 X86.80 Y110.00 F4500
G1 X96.08 Y94.00 E39.1372 F1800
G1 X125.00 Y94.00 E40.1783 F1800
G1 X135.00 Y98.80 E40.5776 F1800
G1 X138.00 Y110.00 E40.9950 F1800
G1 X135.00 Y121.20 E41.4124 F1800
G1 X125.00 Y126.00 E41.8118 F1800
G1 X96.08 Y126.00 E42.8529 F1800
G1 X86.80 Y110.00 E43.5188 F1800
;LAYER:9
;LAYER_CHANGE Z=2.90
G1 Z2.90 F1500
;TYPE:WALL-OUTER
G1 X86.40 Y110.00 F4500
G1 X95.84 Y93.75 E44.1953 F1800
G1 X125.00 Y93.75 E45.2451 F1800
G1 X135.00 Y98.63 E45.6456 F1800
G1 X138.00 Y110.00 E46.0691 F1800
G1 X135.00 Y121.38 E46.4926 F1800
G1 X125.00 Y126.25 E46.8931 F1800
G1 X95.84 Y126.25 E47.9428 F1800
G1 X86.40 Y110.00 E48.6194 F1800
;LAYER:10
;LAYER_CHANGE Z=3.20
G1 Z3.20 F1500
;TYPE:WALL-OUTER
G1 X86.00 Y110.00 F4500
G1 X95.60 Y93.50 E49.3066 F1800
G1 X125.00 Y93.50 E50.3650 F1800
G1 X135.00 Y98.45 E50.7667 F1800
G1 X138.00 Y110.00 E51.1963 F1800
G1 X135.00 Y121.55 E51.6259 F1800
G1 X125.00 Y126.50 E52.0276 F1800
G1 X95.60 Y126.50 E53.0860 F1800
G1 X86.00 Y110.00 E53.7732 F1800
;LAYER:11
;LAYER_CHANGE Z=3.50
G1 Z3.50 F1500
;TYPE:WALL-OUTER
G1 X85.60 Y110.00 F4500
G1 X95.36 Y93.25 E54.4711 F1800
G1 X125.00 Y93.25 E55.5381 F1800
G1 X135.00 Y98.28 E55.9410 F1800
G1 X138.00 Y110.00 E56.3767 F1800
G1 X135.00 Y121.72 E56.8124 F1800
G1 X125.00 Y126.75 E57.2153 F1800
G1 X95.36 Y126.75 E58.2824 F1800
G1 X85.60 Y110.00 E58.9803 F1800
;LAYER:12
;LAYER_CHANGE Z=3.80
G1 Z3.80 F1500
;TYPE:WALL-OUTER
G1 X85.20 Y110.00 F4500
G1 X95.12 Y93.00 E59.6888 F1800
G1 X125.00 Y93.00 E60.7645 F1800
G1 X135.00 Y98.10 E61.1686 F1800
G1 X138.00 Y110.00 E61.6104 F1800
G1 X135.00 Y121.90 E62.0522 F1800
G1 X125.00 Y127.00 E62.4564 F1800
G1 X95.12 Y127.00 E63.5320 F1800
G1 X85.20 Y110.00 E64.2406 F1800
;LAYER:13
;LAYER_CHANGE Z=4.10
G1 Z4.10 F1500
;TYPE:WALL-OUTER
G1 X84.80 Y110.00 F4500
G1 X94.88 Y92.75 E64.9599 F1800
G1 X125.00 Y92.75 E66.0442 F1800
G1 X135.00 Y97.92 E66.4495 F1800
G1 X138.00 Y110.00 E66.8974 F1800
G1 X135.00 Y122.08 E67.3454 F1800
G1 X125.00 Y127.25 E67.7507 F1800
G1 X94.88 Y127.25 E68.8350 F1800
G1 X84.80 Y110.00 E69.5543 F1800
;LAYER:14
;LAYER_CHANGE Z=4.40
G1 Z4.40 F1500
;TYPE:WALL-OUTER
G1 X84.40 Y110.00 F4500
G1 X94.64 Y92.50 E70.2842 F1800
G1 X125.00 Y92.50 E71.3772 F1800
G1 X135.00 Y97.75 E71.7838 F1800
G1 X138.00 Y110.00 E72.2378 F1800
G1 X135.00 Y122.25 E72.6918 F1800
G1 X125.00 Y127.50 E73.0984 F1800
G1 X94.64 Y127.50 E74.1914 F1800
G1 X84.40 Y110.00 E74.9213 F1800
;LAYER:15
;LAYER_CHANGE Z=4.70
G1 Z4.70 F1500
;TYPE:WALL-OUTER
G1 X84.00 Y110.00 F4500
G1 X94.40 Y92.25 E75.6619 F1800
G1 X125.00 Y92.25 E76.7635 F1800
G1 X135.00 Y97.58 E77.1714 F1800
G1 X138.00 Y110.00 E77.6315 F1800
G1 X135.00 Y122.42 E78.0917 F1800
G1 X125.00 Y127.75 E78.4995 F1800
G1 X94.40 Y127.75 E79.6011 F1800
G1 X84.00 Y110.00 E80.3418 F1800
;LAYER:16
;LAYER_CHANGE Z=5.00
G1 Z5.00 F1500
;TYPE:WALL-OUTER
G1 X83.60 Y110.00 F4500
G1 X94.16 Y92.00 E81.0930 F1800
G1 X125.00 Y92.00 E82.2033 F1800
G1 X135.00 Y97.40 E82.6124 F1800
G1 X138.00 Y110.00 E83.0787 F1800
G1 X135.00 Y122.60 E83.5450 F1800
G1 X125.00 Y128.00 E83.9541 F1800
G1 X94.16 Y128.00 E85.0643 F1800
G1 X83.60 Y110.00 E85.8156 F1800
;LAYER:17
;LAYER_CHANGE Z=5.30
G1 Z5.30 F1500
;TYPE:WALL-OUTER
G1 X83.20 Y110.00 F4500
G1 X93.92 Y91.75 E86.5776 F1800
G1 X125.00 Y91.75 E87.6965 F1800
G1 X135.00 Y97.22 E88.1069 F1800
G1 X138.00 Y110.00 E88.5793 F1800
G1 X135.00 Y122.78 E89.0517 F1800
G1 X125.00 Y128.25 E89.4621 F1800
G1 X93.92 Y128.25 E90.5810 F1800
G1 X83.20 Y110.00 E91.3430 F1800
;LAYER:18
;LAYER_CHANGE Z=5.60
G1 Z5.60 F1500
;TYPE:WALL-OUTER
G1 X82.80 Y110.00 F4500
G1 X93.68 Y91.50 E92.1156 F1800
G1 X125.00 Y91.50 E93.2431 F1800
G1 X135.00 Y97.05 E93.6549 F1800
G1 X138.00 Y110.00 E94.1334 F1800
G1 X135.00 Y122.95 E94.6120 F1800
G1 X125.00 Y128.50 E95.0237 F1800
G1 X93.68 Y128.50 E96.1512 F1800
G1 X82.80 Y110.00 E96.9238 F1800
;LAYER:19
;LAYER_CHANGE Z=5.90
G1 Z5.90 F1500
;TYPE:WALL-OUTER
G1 X82.40 Y110.00 F4500
G1 X93.44 Y91.25 E97.7072 F1800
G1 X125.00 Y91.25 E98.8433 F1800
G1 X135.00 Y96.88 E99.2564 F1800
G1 X138.00 Y110.00 E99.7410 F1800
G1 X135.00 Y123.13 E100.2257 F1800
G1 X125.00 Y128.75 E100.6388 F1800
G1 X93.44 Y128.75 E101.7749 F1800
G1 X82.40 Y110.00 E102.5583 F1800
;LAYER:20
;LAYER_CHANGE Z=6.20
G1 Z6.20 F1500
;TYPE:WALL-OUTER
G1 X82.00 Y110.00 F4500
G1 X93.20 Y91.00 E103.3522 F1800
G1 X125.00 Y91.00 E104.4970 F1800
G1 X135.00 Y96.70 E104.9114 F1800
G1 X138.00 Y110.00 E105.4023 F1800
G1 X135.00 Y123.30 E105.8931 F1800
G1 X125.00 Y129.00 E106.3075 F1800
G1 X93.20 Y129.00 E107.4523 F1800
G1 X82.00 Y110.00 E108.2463 F1800
;TYPE:WALL-INNER
G1 X102.0 Y103.0 F4000
G1 X124.0 Y103.0 E109.0463 F2200
G1 X124.0 Y117.0 E109.5463
G1 X102.0 Y117.0 E110.3463
G1 X102.0 Y103.0 E110.8463
;LAYER:21
;LAYER_CHANGE Z=6.50
G1 Z6.50 F1500
;TYPE:WALL-OUTER
G1 X81.60 Y110.00 F4500
G1 X92.96 Y90.75 E111.6509 F1800
G1 X125.00 Y90.75 E112.8044 F1800
G1 X135.00 Y96.53 E113.2201 F1800
G1 X138.00 Y110.00 E113.7171 F1800
G1 X135.00 Y123.47 E114.2140 F1800
G1 X125.00 Y129.25 E114.6298 F1800
G1 X92.96 Y129.25 E115.7832 F1800
G1 X81.60 Y110.00 E116.5879 F1800
;TYPE:WALL-INNER
G1 X102.0 Y103.0 F4000
G1 X124.0 Y103.0 E117.3879 F2200
G1 X124.0 Y117.0 E117.8879
G1 X102.0 Y117.0 E118.6879
G1 X102.0 Y103.0 E119.1879
;LAYER:22
;LAYER_CHANGE Z=6.80
G1 Z6.80 F1500
;TYPE:WALL-OUTER
G1 X81.20 Y110.00 F4500
G1 X92.72 Y90.50 E120.0032 F1800
G1 X125.00 Y90.50 E121.1653 F1800
G1 X135.00 Y96.35 E121.5824 F1800
G1 X138.00 Y110.00 E122.0855 F1800
G1 X135.00 Y123.65 E122.5886 F1800
G1 X125.00 Y129.50 E123.0057 F1800
G1 X92.72 Y129.50 E124.1678 F1800
G1 X81.20 Y110.00 E124.9831 F1800
;TYPE:WALL-INNER
G1 X102.0 Y103.0 F4000
G1 X124.0 Y103.0 E125.7831 F2200
G1 X124.0 Y117.0 E126.2831
G1 X102.0 Y117.0 E127.0831
G1 X102.0 Y103.0 E127.5831
;LAYER:23
;LAYER_CHANGE Z=7.10
G1 Z7.10 F1500
;TYPE:WALL-OUTER
G1 X80.80 Y110.00 F4500
G1 X92.48 Y90.25 E128.4092 F1800
G1 X125.00 Y90.25 E129.5799 F1800
G1 X135.00 Y96.17 E129.9983 F1800
G1 X138.00 Y110.00 E130.5076 F1800
G1 X135.00 Y123.83 E131.0169 F1800
G1 X125.00 Y129.75 E131.4353 F1800
G1 X92.48 Y129.75 E132.6061 F1800
G1 X80.80 Y110.00 E133.4321 F1800
;TYPE:WALL-INNER
G1 X102.0 Y103.0 F4000
G1 X124.0 Y103.0 E134.2321 F2200
G1 X124.0 Y117.0 E134.7321
G1 X102.0 Y117.0 E135.5321
G1 X102.0 Y103.0 E136.0321
;LAYER:24
;LAYER_CHANGE Z=7.40
G1 Z7.40 F1500
;TYPE:WALL-OUTER
G1 X80.40 Y110.00 F4500
G1 X92.24 Y90.00 E136.8688 F1800
G1 X125.00 Y90.00 E138.0482 F1800
G1 X135.00 Y96.00 E138.4680 F1800
G1 X138.00 Y110.00 E138.9834 F1800
G1 X135.00 Y124.00 E139.4989 F1800
G1 X125.00 Y130.00 E139.9187 F1800
G1 X92.24 Y130.00 E141.0981 F1800
G1 X80.40 Y110.00 E141.9348 F1800
;TYPE:WALL-INNER
G1 X102.0 Y103.0 F4000
G1 X124.0 Y103.0 E142.7348 F2200
G1 X124.0 Y117.0 E143.2348
G1 X102.0 Y117.0 E144.0348
G1 X102.0 Y103.0 E144.5348
;LAYER:25
;LAYER_CHANGE Z=7.70
G1 Z7.70 F1500
;TYPE:WALL-OUTER
G1 X80.00 Y110.00 F4500
G1 X92.00 Y89.75 E145.3822 F1800
G1 X125.00 Y89.75 E146.5702 F1800
G1 X135.00 Y95.83 E146.9914 F1800
G1 X138.00 Y110.00 E147.5130 F1800
G1 X135.00 Y124.17 E148.0346 F1800
G1 X125.00 Y130.25 E148.4558 F1800
G1 X92.00 Y130.25 E149.6438 F1800
G1 X80.00 Y110.00 E150.4912 F1800
;TYPE:WALL-INNER
G1 X102.0 Y103.0 F4000
G1 X124.0 Y103.0 E151.2912 F2200
G1 X124.0 Y117.0 E151.7912
G1 X102.0 Y117.0 E152.5912
G1 X102.0 Y103.0 E153.0912
;LAYER:26
;LAYER_CHANGE Z=8.00
G1 Z8.00 F1500
;TYPE:WALL-OUTER
G1 X79.60 Y110.00 F4500
G1 X91.76 Y89.50 E153.9493 F1800
G1 X125.00 Y89.50 E155.1459 F1800
G1 X135.00 Y95.65 E155.5685 F1800
G1 X138.00 Y110.00 E156.0963 F1800
G1 X135.00 Y124.35 E156.6241 F1800
G1 X125.00 Y130.50 E157.0467 F1800
G1 X91.76 Y130.50 E158.2433 F1800
G1 X79.60 Y110.00 E159.1014 F1800
;TYPE:WALL-INNER
G1 X102.0 Y103.0 F4000
G1 X124.0 Y103.0 E159.9014 F2200
G1 X124.0 Y117.0 E160.4014
G1 X102.0 Y117.0 E161.2014
G1 X102.0 Y103.0 E161.7014
;LAYER:27
;LAYER_CHANGE Z=8.30
G1 Z8.30 F1500
;TYPE:WALL-OUTER
G1 X79.20 Y110.00 F4500
G1 X91.52 Y89.25 E162.5702 F1800
G1 X125.00 Y89.25 E163.7754 F1800
G1 X135.00 Y95.47 E164.1995 F1800
G1 X138.00 Y110.00 E164.7334 F1800
G1 X135.00 Y124.53 E165.2674 F1800
G1 X125.00 Y130.75 E165.6914 F1800
G1 X91.52 Y130.75 E166.8967 F1800
G1 X79.20 Y110.00 E167.7654 F1800
;TYPE:WALL-INNER
G1 X102.0 Y103.0 F4000
G1 X124.0 Y103.0 E168.5654 F2200
G1 X124.0 Y117.0 E169.0654
G1 X102.0 Y117.0 E169.8654
G1 X102.0 Y103.0 E170.3654
;LAYER:28
;LAYER_CHANGE Z=8.60
G1 Z8.60 F1500
;TYPE:WALL-OUTER
G1 X78.80 Y110.00 F4500
G1 X91.28 Y89.00 E171.2449 F1800
G1 X125.00 Y89.00 E172.4588 F1800
G1 X135.00 Y95.30 E172.8843 F1800
G1 X138.00 Y110.00 E173.4244 F1800
G1 X135.00 Y124.70 E173.9645 F1800
G1 X125.00 Y131.00 E174.3900 F1800
G1 X91.28 Y131.00 E175.6039 F1800
G1 X78.80 Y110.00 E176.4833 F1800
;TYPE:WALL-INNER
G1 X102.0 Y103.0 F4000
G1 X124.0 Y103.0 E177.2833 F2200
G1 X124.0 Y117.0 E177.7833
G1 X102.0 Y117.0 E178.5833
G1 X102.0 Y103.0 E179.0833
;LAYER:29
;LAYER_CHANGE Z=8.90
G1 Z8.90 F1500
;TYPE:WALL-OUTER
G1 X78.40 Y110.00 F4500
G1 X91.04 Y88.75 E179.9734 F1800
G1 X125.00 Y88.75 E181.1960 F1800
G1 X135.00 Y95.13 E181.6229 F1800
G1 X138.00 Y110.00 E182.1692 F1800
G1 X135.00 Y124.88 E182.7155 F1800
G1 X125.00 Y131.25 E183.1424 F1800
G1 X91.04 Y131.25 E184.3650 F1800
G1 X78.40 Y110.00 E185.2551 F1800
;TYPE:WALL-INNER
G1 X102.0 Y103.0 F4000
G1 X124.0 Y103.0 E186.0551 F2200
G1 X124.0 Y117.0 E186.5551
G1 X102.0 Y117.0 E187.3551
G1 X102.0 Y103.0 E187.8551
;LAYER:30
;LAYER_CHANGE Z=9.20
G1 Z9.20 F1500
;TYPE:WALL-OUTER
G1 X78.00 Y110.00 F4500
G1 X90.80 Y88.50 E188.7559 F1800
G1 X125.00 Y88.50 E189.9871 F1800
G1 X135.00 Y94.95 E190.4155 F1800
G1 X138.00 Y110.00 E190.9679 F1800
G1 X135.00 Y125.05 E191.5204 F1800
G1 X125.00 Y131.50 E191.9488 F1800
G1 X90.80 Y131.50 E193.1800 F1800
G1 X78.00 Y110.00 E194.0807 F1800
;TYPE:WALL-INNER
G1 X102.0 Y103.0 F4000
G1 X124.0 Y103.0 E194.8807 F2200
G1 X124.0 Y117.0 E195.3807
G1 X102.0 Y117.0 E196.1807
G1 X102.0 Y103.0 E196.6807
;LAYER:31
;LAYER_CHANGE Z=9.50
G1 Z9.50 F1500
;TYPE:WALL-OUTER
G1 X77.60 Y110.00 F4500
G1 X90.56 Y88.25 E197.5922 F1800
G1 X125.00 Y88.25 E198.8320 F1800
G1 X135.00 Y94.78 E199.2619 F1800
G1 X138.00 Y110.00 E199.8205 F1800
G1 X135.00 Y125.22 E200.3792 F1800
G1 X125.00 Y131.75 E200.8090 F1800
G1 X90.56 Y131.75 E202.0489 F1800
G1 X77.60 Y110.00 E202.9603 F1800
;TYPE:WALL-INNER
G1 X102.0 Y103.0 F4000
G1 X124.0 Y103.0 E203.7603 F2200
G1 X124.0 Y117.0 E204.2603
G1 X102.0 Y117.0 E205.0603
G1 X102.0 Y103.0 E205.5603
;LAYER:32
;LAYER_CHANGE Z=9.80
G1 Z9.80 F1500
;TYPE:WALL-OUTER
G1 X77.20 Y110.00 F4500
G1 X90.32 Y88.00 E206.4825 F1800
G1 X125.00 Y88.00 E207.7310 F1800
G1 X135.00 Y94.60 E208.1623 F1800
G1 X138.00 Y110.00 E208.7271 F1800
G1 X135.00 Y125.40 E209.2920 F1800
G1 X125.00 Y132.00 E209.7233 F1800
G1 X90.32 Y132.00 E210.9718 F1800
G1 X77.20 Y110.00 E211.8939 F1800
;TYPE:WALL-INNER
G1 X102.0 Y103.0 F4000
G1 X124.0 Y103.0 E212.6939 F2200
G1 X124.0 Y117.0 E213.1939
G1 X102.0 Y117.0 E213.9939
G1 X102.0 Y103.0 E214.4939
;LAYER:33
;LAYER_CHANGE Z=10.10
G1 Z10.10 F1500
;TYPE:WALL-OUTER
G1 X76.80 Y110.00 F4500
G1 X90.08 Y88.00 E215.4190 F1800
G1 X125.00 Y88.00 E216.6761 F1800
G1 X135.00 Y94.60 E217.1075 F1800
G1 X138.00 Y110.00 E217.6723 F1800
G1 X135.00 Y125.40 E218.2371 F1800
G1 X125.00 Y132.00 E218.6685 F1800
G1 X90.08 Y132.00 E219.9256 F1800
G1 X76.80 Y110.00 E220.8507 F1800
;TYPE:WALL-INNER
G1 X102.0 Y103.0 F4000
G1 X124.0 Y103.0 E221.6507 F2200
G1 X124.0 Y117.0 E222.1507
G1 X102.0 Y117.0 E222.9507
G1 X102.0 Y103.0 E223.4507
;LAYER:34
;LAYER_CHANGE Z=10.40
G1 Z10.40 F1500
;TYPE:WALL-OUTER
G1 X76.40 Y110.00 F4500
G1 X89.84 Y88.00 E224.3788 F1800
G1 X125.00 Y88.00 E225.6446 F1800
G1 X135.00 Y94.60 E226.0759 F1800
G1 X138.00 Y110.00 E226.6407 F1800
G1 X135.00 Y125.40 E227.2055 F1800
G1 X125.00 Y132.00 E227.6369 F1800
G1 X89.84 Y132.00 E228.9026 F1800
G1 X76.40 Y110.00 E229.8307 F1800
;TYPE:WALL-INNER
G1 X102.0 Y103.0 F4000
G1 X124.0 Y103.0 E230.6307 F2200
G1 X124.0 Y117.0 E231.1307
G1 X102.0 Y117.0 E231.9307
G1 X102.0 Y103.0 E232.4307
;LAYER:35
;LAYER_CHANGE Z=10.70
G1 Z10.70 F1500
;TYPE:WALL-OUTER
G1 X76.00 Y110.00 F4500
G1 X89.60 Y88.00 E233.3618 F1800
G1 X125.00 Y88.00 E234.6362 F1800
G1 X135.00 Y94.60 E235.0676 F1800
G1 X138.00 Y110.00 E235.6324 F1800
G1 X135.00 Y125.40 E236.1972 F1800
G1 X125.00 Y132.00 E236.6286 F1800
G1 X89.60 Y132.00 E237.9030 F1800
G1 X76.00 Y110.00 E238.8341 F1800
;TYPE:WALL-INNER
G1 X102.0 Y103.0 F4000
G1 X124.0 Y103.0 E239.6341 F2200
G1 X124.0 Y117.0 E240.1341
G1 X102.0 Y117.0 E240.9341
G1 X102.0 Y103.0 E241.4341
;LAYER:36
;LAYER_CHANGE Z=11.00
G1 Z11.00 F1500
;TYPE:WALL-OUTER
G1 X75.60 Y110.00 F4500
G1 X89.36 Y88.00 E242.3682 F1800
G1 X125.00 Y88.00 E243.6513 F1800
G1 X135.00 Y94.60 E244.0826 F1800
G1 X138.00 Y110.00 E244.6474 F1800
G1 X135.00 Y125.40 E245.2123 F1800
G1 X125.00 Y132.00 E245.6436 F1800
G1 X89.36 Y132.00 E246.9266 F1800
G1 X75.60 Y110.00 E247.8608 F1800
;TYPE:WALL-INNER
G1 X102.0 Y103.0 F4000
G1 X124.0 Y103.0 E248.6608 F2200
G1 X124.0 Y117.0 E249.1608
G1 X102.0 Y117.0 E249.9608
G1 X102.0 Y103.0 E250.4608
;LAYER:37
;LAYER_CHANGE Z=11.30
G1 Z11.30 F1500
;TYPE:WALL-OUTER
G1 X75.20 Y110.00 F4500
G1 X89.12 Y88.00 E251.3980 F1800
G1 X125.00 Y88.00 E252.6897 F1800
G1 X135.00 Y94.60 E253.1210 F1800
G1 X138.00 Y110.00 E253.6859 F1800
G1 X135.00 Y125.40 E254.2507 F1800
G1 X125.00 Y132.00 E254.6820 F1800
G1 X89.12 Y132.00 E255.9737 F1800
G1 X75.20 Y110.00 E256.9109 F1800
;TYPE:WALL-INNER
G1 X102.0 Y103.0 F4000
G1 X124.0 Y103.0 E257.7109 F2200
G1 X124.0 Y117.0 E258.2109
G1 X102.0 Y117.0 E259.0109
G1 X102.0 Y103.0 E259.5109
;LAYER:38
;LAYER_CHANGE Z=11.60
G1 Z11.60 F1500
;TYPE:WALL-OUTER
G1 X75.00 Y110.00 F4500
G1 X89.00 Y88.00 E260.4497 F1800
G1 X125.00 Y88.00 E261.7457 F1800
G1 X135.00 Y94.60 E262.1770 F1800
G1 X138.00 Y110.00 E262.7418 F1800
G1 X135.00 Y125.40 E263.3067 F1800
G1 X125.00 Y132.00 E263.7380 F1800
G1 X89.00 Y132.00 E265.0340 F1800
G1 X75.00 Y110.00 E265.9728 F1800
;TYPE:WALL-INNER
G1 X102.0 Y103.0 F4000
G1 X124.0 Y103.0 E266.7728 F2200
G1 X124.0 Y117.0 E267.2728
G1 X102.0 Y117.0 E268.0728
G1 X102.0 Y103.0 E268.5728
;LAYER:39
;LAYER_CHANGE Z=11.90
G1 Z11.90 F1500
;TYPE:WALL-OUTER
G1 X75.00 Y110.00 F4500
G1 X89.00 Y88.00 E269.5115 F1800
G1 X125.00 Y88.00 E270.8075 F1800
G1 X135.00 Y94.60 E271.2389 F1800
G1 X138.00 Y110.00 E271.8037 F1800
G1 X135.00 Y125.40 E272.3685 F1800
G1 X125.00 Y132.00 E272.7999 F1800
G1 X89.00 Y132.00 E274.0959 F1800
G1 X75.00 Y110.00 E275.0346 F1800
;TYPE:WALL-INNER
G1 X102.0 Y103.0 F4000
G1 X124.0 Y103.0 E275.8346 F2200
G1 X124.0 Y117.0 E276.3346
G1 X102.0 Y117.0 E277.1346
G1 X102.0 Y103.0 E277.6346
;LAYER:40
;LAYER_CHANGE Z=12.20
G1 Z12.20 F1500
;TYPE:WALL-OUTER
G1 X75.00 Y110.00 F4500
G1 X89.00 Y88.00 E278.5734 F1800
G1 X125.00 Y88.00 E279.8694 F1800
G1 X135.00 Y94.60 E280.3007 F1800
G1 X138.00 Y110.00 E280.8656 F1800
G1 X135.00 Y125.40 E281.4304 F1800
G1 X125.00 Y132.00 E281.8617 F1800
G1 X89.00 Y132.00 E283.1577 F1800
G1 X75.00 Y110.00 E284.0965 F1800
;TYPE:WALL-INNER
G1 X102.0 Y103.0 F4000
G1 X124.0 Y103.0 E284.8965 F2200
G1 X124.0 Y117.0 E285.3965
G1 X102.0 Y117.0 E286.1965
G1 X102.0 Y103.0 E286.6965
;LAYER:41
;LAYER_CHANGE Z=12.50
G1 Z12.50 F1500
;TYPE:WALL-OUTER
G1 X75.00 Y110.00 F4500
G1 X89.00 Y88.00 E287.6352 F1800
G1 X125.00 Y88.00 E288.9312 F1800
G1 X135.00 Y94.60 E289.3626 F1800
G1 X138.00 Y110.00 E289.9274 F1800
G1 X135.00 Y125.40 E290.4922 F1800
G1 X125.00 Y132.00 E290.9236 F1800
G1 X89.00 Y132.00 E292.2196 F1800
G1 X75.00 Y110.00 E293.1583 F1800
;TYPE:WALL-INNER
G1 X102.0 Y103.0 F4000
G1 X124.0 Y103.0 E293.9583 F2200
G1 X124.0 Y117.0 E294.4583
G1 X102.0 Y117.0 E295.2583
G1 X102.0 Y103.0 E295.7583
;LAYER:42
;LAYER_CHANGE Z=12.80
G1 Z12.80 F1500
;TYPE:WALL-OUTER
G1 X75.00 Y110.00 F4500
G1 X89.00 Y88.00 E296.6971 F1800
G1 X125.00 Y88.00 E297.9931 F1800
G1 X135.00 Y94.60 E298.4244 F1800
G1 X138.00 Y110.00 E298.9893 F1800
G1 X135.00 Y125.40 E299.5541 F1800
G1 X125.00 Y132.00 E299.9854 F1800
G1 X89.00 Y132.00 E301.2814 F1800
G1 X75.00 Y110.00 E302.2202 F1800
;TYPE:WALL-INNER
G1 X102.0 Y103.0 F4000
G1 X124.0 Y103.0 E303.0202 F2200
G1 X124.0 Y117.0 E303.5202
G1 X102.0 Y117.0 E304.3202
G1 X102.0 Y103.0 E304.8202
;LAYER:43
;LAYER_CHANGE Z=13.10
G1 Z13.10 F1500
;TYPE:WALL-OUTER
G1 X75.00 Y110.00 F4500
G1 X89.00 Y88.00 E305.7589 F1800
G1 X125.00 Y88.00 E307.0549 F1800
G1 X135.00 Y94.60 E307.4863 F1800
G1 X138.00 Y110.00 E308.0511 F1800
G1 X135.00 Y125.40 E308.6159 F1800
G1 X125.00 Y132.00 E309.0473 F1800
G1 X89.00 Y132.00 E310.3433 F1800
G1 X75.00 Y110.00 E311.2820 F1800
;TYPE:WALL-INNER
G1 X102.0 Y103.0 F4000
G1 X124.0 Y103.0 E312.0820 F2200
G1 X124.0 Y117.0 E312.5820
G1 X102.0 Y117.0 E313.3820
G1 X102.0 Y103.0 E313.8820
;LAYER:44
;LAYER_CHANGE Z=13.40
G1 Z13.40 F1500
;TYPE:WALL-OUTER
G1 X75.00 Y110.00 F4500
G1 X89.00 Y88.00 E314.8208 F1800
G1 X125.00 Y88.00 E316.1168 F1800
G1 X135.00 Y94.60 E316.5481 F1800
G1 X138.00 Y110.00 E317.1130 F1800
G1 X135.00 Y125.40 E317.6778 F1800
G1 X125.00 Y132.00 E318.1091 F1800
G1 X89.00 Y132.00 E319.4051 F1800
G1 X75.00 Y110.00 E320.3439 F1800
;TYPE:WALL-INNER
G1 X102.0 Y103.0 F4000
G1 X124.0 Y103.0 E321.1439 F2200
G1 X124.0 Y117.0 E321.6439
G1 X102.0 Y117.0 E322.4439
G1 X102.0 Y103.0 E322.9439
;LAYER:45
;LAYER_CHANGE Z=13.70
G1 Z13.70 F1500
;TYPE:WALL-OUTER
G1 X75.00 Y110.00 F4500
G1 X89.00 Y88.00 E323.8827 F1800
G1 X125.00 Y88.00 E325.1787 F1800
G1 X135.00 Y94.60 E325.6100 F1800
G1 X138.00 Y110.00 E326.1748 F1800
G1 X135.00 Y125.40 E326.7396 F1800
G1 X125.00 Y132.00 E327.1710 F1800
G1 X89.00 Y132.00 E328.4670 F1800
G1 X75.00 Y110.00 E329.4057 F1800
;TYPE:WALL-INNER
G1 X102.0 Y103.0 F4000
G1 X124.0 Y103.0 E330.2057 F2200
G1 X124.0 Y117.0 E330.7057
G1 X102.0 Y117.0 E331.5057
G1 X102.0 Y103.0 E332.0057
;LAYER:46
;LAYER_CHANGE Z=14.00
G1 Z14.00 F1500
;TYPE:WALL-OUTER
G1 X75.00 Y110.00 F4500
G1 X89.00 Y88.00 E332.9445 F1800
G1 X125.00 Y88.00 E334.2405 F1800
G1 X135.00 Y94.60 E334.6718 F1800
G1 X138.00 Y110.00 E335.2367 F1800
G1 X135.00 Y125.40 E335.8015 F1800
G1 X125.00 Y132.00 E336.2328 F1800
G1 X89.00 Y132.00 E337.5288 F1800
G1 X75.00 Y110.00 E338.4676 F1800
;TYPE:WALL-INNER
G1 X102.0 Y103.0 F4000
G1 X124.0 Y103.0 E339.2676 F2200
G1 X124.0 Y117.0 E339.7676
G1 X102.0 Y117.0 E340.5676
G1 X102.0 Y103.0 E341.0676
;LAYER:47
;LAYER_CHANGE Z=14.30
G1 Z14.30 F1500
;TYPE:WALL-OUTER
G1 X75.00 Y110.00 F4500
G1 X89.00 Y88.00 E342.0064 F1800
G1 X125.00 Y88.00 E343.3024 F1800
G1 X135.00 Y94.60 E343.7337 F1800
G1 X138.00 Y110.00 E344.2985 F1800
G1 X135.00 Y125.40 E344.8633 F1800
G1 X125.00 Y132.00 E345.2947 F1800
G1 X89.00 Y132.00 E346.5907 F1800
G1 X75.00 Y110.00 E347.5294 F1800
;TYPE:WALL-INNER
G1 X102.0 Y103.0 F4000
G1 X124.0 Y103.0 E348.3294 F2200
G1 X124.0 Y117.0 E348.8294
G1 X102.0 Y117.0 E349.6294
G1 X102.0 Y103.0 E350.1294
;LAYER:48
;LAYER_CHANGE Z=14.60
G1 Z14.60 F1500
;TYPE:WALL-OUTER
G1 X75.00 Y110.00 F4500
G1 X89.00 Y88.00 E351.0682 F1800
G1 X125.00 Y88.00 E352.3642 F1800
G1 X135.00 Y94.60 E352.7955 F1800
G1 X138.00 Y110.00 E353.3604 F1800
G1 X135.00 Y125.40 E353.9252 F1800
G1 X125.00 Y132.00 E354.3565 F1800
G1 X89.00 Y132.00 E355.6525 F1800
G1 X75.00 Y110.00 E356.5913 F1800
;TYPE:WALL-INNER
G1 X102.0 Y103.0 F4000
G1 X124.0 Y103.0 E357.3913 F2200
G1 X124.0 Y117.0 E357.8913
G1 X102.0 Y117.0 E358.6913
G1 X102.0 Y103.0 E359.1913
;LAYER:49
;LAYER_CHANGE Z=14.90
G1 Z14.90 F1500
;TYPE:WALL-OUTER
G1 X75.00 Y110.00 F4500
G1 X89.00 Y88.00 E360.1301 F1800
G1 X125.00 Y88.00 E361.4261 F1800
G1 X135.00 Y94.60 E361.8574 F1800
G1 X138.00 Y110.00 E362.4222 F1800
G1 X135.00 Y125.40 E362.9870 F1800
G1 X125.00 Y132.00 E363.4184 F1800
G1 X89.00 Y132.00 E364.7144 F1800
G1 X75.00 Y110.00 E365.6531 F1800
;TYPE:WALL-INNER
G1 X102.0 Y103.0 F4000
G1 X124.0 Y103.0 E366.4531 F2200
G1 X124.0 Y117.0 E366.9531
G1 X102.0 Y117.0 E367.7531
G1 X102.0 Y103.0 E368.2531
;LAYER:50
;LAYER_CHANGE Z=15.20
G1 Z15.20 F1500
;TYPE:WALL-OUTER
G1 X75.00 Y110.00 F4500
G1 X89.00 Y88.00 E369.1919 F1800
G1 X125.00 Y88.00 E370.4879 F1800
G1 X135.00 Y94.60 E370.9193 F1800
G1 X138.00 Y110.00 E371.4841 F1800
G1 X135.00 Y125.40 E372.0489 F1800
G1 X125.00 Y132.00 E372.4802 F1800
G1 X89.00 Y132.00 E373.7762 F1800
G1 X75.00 Y110.00 E374.7150 F1800
;TYPE:WALL-INNER
G1 X102.0 Y103.0 F4000
G1 X124.0 Y103.0 E375.5150 F2200
G1 X124.0 Y117.0 E376.0150
G1 X102.0 Y117.0 E376.8150
G1 X102.0 Y103.0 E377.3150
;LAYER:51
;LAYER_CHANGE Z=15.50
G1 Z15.50 F1500
;TYPE:WALL-OUTER
G1 X75.00 Y110.00 F4500
G1 X89.00 Y88.00 E378.2538 F1800
G1 X125.00 Y88.00 E379.5498 F1800
G1 X135.00 Y94.60 E379.9811 F1800
G1 X138.00 Y110.00 E380.5459 F1800
G1 X135.00 Y125.40 E381.1107 F1800
G1 X125.00 Y132.00 E381.5421 F1800
G1 X89.00 Y132.00 E382.8381 F1800
G1 X75.00 Y110.00 E383.7769 F1800
;LAYER:52
;LAYER_CHANGE Z=15.80
G1 Z15.80 F1500
;TYPE:WALL-OUTER
G1 X75.00 Y110.00 F4500
G1 X89.00 Y88.00 E384.7156 F1800
G1 X125.00 Y88.00 E386.0116 F1800
G1 X135.00 Y94.60 E386.4430 F1800
G1 X138.00 Y110.00 E387.0078 F1800
G1 X135.00 Y125.40 E387.5726 F1800
G1 X125.00 Y132.00 E388.0039 F1800
G1 X89.00 Y132.00 E389.2999 F1800
G1 X75.00 Y110.00 E390.2387 F1800
;LAYER:53
;LAYER_CHANGE Z=16.10
G1 Z16.10 F1500
;TYPE:WALL-OUTER
G1 X75.00 Y110.00 F4500
G1 X89.00 Y88.00 E391.1775 F1800
G1 X125.00 Y88.00 E392.4735 F1800
G1 X135.00 Y94.60 E392.9048 F1800
G1 X138.00 Y110.00 E393.4696 F1800
G1 X135.00 Y125.40 E394.0345 F1800
G1 X125.00 Y132.00 E394.4658 F1800
G1 X89.00 Y132.00 E395.7618 F1800
G1 X75.00 Y110.00 E396.7006 F1800
;LAYER:54
;LAYER_CHANGE Z=16.40
G1 Z16.40 F1500
;TYPE:WALL-OUTER
G1 X75.00 Y110.00 F4500
G1 X89.00 Y88.00 E397.6393 F1800
G1 X125.00 Y88.00 E398.9353 F1800
G1 X135.00 Y94.60 E399.3667 F1800
G1 X138.00 Y110.00 E399.9315 F1800
G1 X135.00 Y125.40 E400.4963 F1800
G1 X125.00 Y132.00 E400.9276 F1800
G1 X89.00 Y132.00 E402.2236 F1800
G1 X75.00 Y110.00 E403.1624 F1800
;LAYER:55
;LAYER_CHANGE Z=16.70
G1 Z16.70 F1500
;TYPE:WALL-OUTER
G1 X75.00 Y110.00 F4500
G1 X89.00 Y88.00 E404.1012 F1800
G1 X125.00 Y88.00 E405.3972 F1800
G1 X135.00 Y94.60 E405.8285 F1800
G1 X138.00 Y110.00 E406.3933 F1800
G1 X135.00 Y125.40 E406.9582 F1800
G1 X125.00 Y132.00 E407.3895 F1800
G1 X89.00 Y132.00 E408.6855 F1800
G1 X75.00 Y110.00 E409.6243 F1800
;LAYER:56
;LAYER_CHANGE Z=17.00
G1 Z17.00 F1500
;TYPE:WALL-OUTER
G1 X75.00 Y110.00 F4500
G1 X89.00 Y88.00 E410.5630 F1800
G1 X125.00 Y88.00 E411.8590 F1800
G1 X135.00 Y94.60 E412.2904 F1800
G1 X138.00 Y110.00 E412.8552 F1800
G1 X135.00 Y125.40 E413.4200 F1800
G1 X125.00 Y132.00 E413.8513 F1800
G1 X89.00 Y132.00 E415.1473 F1800
G1 X75.00 Y110.00 E416.0861 F1800
;LAYER:57
;LAYER_CHANGE Z=17.30
G1 Z17.30 F1500
;TYPE:WALL-OUTER
G1 X75.00 Y110.00 F4500
G1 X89.00 Y88.00 E417.0249 F1800
G1 X125.00 Y88.00 E418.3209 F1800
G1 X135.00 Y94.60 E418.7522 F1800
G1 X138.00 Y110.00 E419.3170 F1800
G1 X135.00 Y125.40 E419.8819 F1800
G1 X125.00 Y132.00 E420.3132 F1800
G1 X89.00 Y132.00 E421.6092 F1800
G1 X75.00 Y110.00 E422.5480 F1800
;LAYER:58
;LAYER_CHANGE Z=17.60
G1 Z17.60 F1500
;TYPE:WALL-OUTER
G1 X75.00 Y110.00 F4500
G1 X89.00 Y88.00 E423.4867 F1800
G1 X125.00 Y88.00 E424.7827 F1800
G1 X135.00 Y94.60 E425.2141 F1800
G1 X138.00 Y110.00 E425.7789 F1800
G1 X135.00 Y125.40 E426.3437 F1800
G1 X125.00 Y132.00 E426.7751 F1800
G1 X89.00 Y132.00 E428.0711 F1800
G1 X75.00 Y110.00 E429.0098 F1800
;LAYER:59
;LAYER_CHANGE Z=17.90
G1 Z17.90 F1500
;TYPE:WALL-OUTER
G1 X75.00 Y110.00 F4500
G1 X89.00 Y88.00 E429.9486 F1800
G1 X125.00 Y88.00 E431.2446 F1800
G1 X135.00 Y94.60 E431.6759 F1800
G1 X138.00 Y110.00 E432.2407 F1800
G1 X135.00 Y125.40 E432.8056 F1800
G1 X125.00 Y132.00 E433.2369 F1800
G1 X89.00 Y132.00 E434.5329 F1800
G1 X75.00 Y110.00 E435.4717 F1800
M104 S0
M140 S0
M107
G91
G1 Z10 F3000
G90
G28 X0 Y0
M84