; 3D PRINTER SIMULATOR - CALIBRATION CUBE 20mm
; Dimensions: 20.0 x 20.0 x 20.0 mm
G21
G90
M82
M140 S60
M104 S200
M190 S60
M109 S200
G28
G92 E0
G1 Z2.0 F3000
G1 X90 Y90 F6000
;LAYER:0
;LAYER_CHANGE Z=0.20
G1 Z0.20 F1500
;TYPE:WALL-OUTER
G1 X100.0 Y100.0 F4800
G1 X120.0 Y100.0 E0.7600 F1800
G1 X120.0 Y120.0 E1.5200
G1 X100.0 Y120.0 E2.2800
G1 X100.0 Y100.0 E3.0400
;TYPE:WALL-INNER
G1 X100.4 Y100.4 F3600
G1 X119.6 Y100.4 E3.7700 F2400
G1 X119.6 Y119.6 E4.5000
G1 X100.4 Y119.6 E5.2300
G1 X100.4 Y100.4 E5.9600
;TYPE:SKIN
G1 X101.50 Y101.0 F3600
G1 X101.50 Y119.0 E6.6400 F2700
G1 X102.30 Y101.0 F3600
G1 X102.30 Y119.0 E7.3200 F2700
G1 X103.10 Y101.0 F3600
G1 X103.10 Y119.0 E8.0000 F2700
G1 X103.90 Y101.0 F3600
G1 X103.90 Y119.0 E8.6800 F2700
G1 X104.70 Y101.0 F3600
G1 X104.70 Y119.0 E9.3600 F2700
G1 X105.50 Y101.0 F3600
G1 X105.50 Y119.0 E10.0400 F2700
G1 X106.30 Y101.0 F3600
G1 X106.30 Y119.0 E10.7200 F2700
G1 X107.10 Y101.0 F3600
G1 X107.10 Y119.0 E11.4000 F2700
G1 X107.90 Y101.0 F3600
G1 X107.90 Y119.0 E12.0800 F2700
G1 X108.70 Y101.0 F3600
G1 X108.70 Y119.0 E12.7600 F2700
G1 X109.50 Y101.0 F3600
G1 X109.50 Y119.0 E13.4400 F2700
G1 X110.30 Y101.0 F3600
G1 X110.30 Y119.0 E14.1200 F2700
G1 X111.10 Y101.0 F3600
G1 X111.10 Y119.0 E14.8000 F2700
G1 X111.90 Y101.0 F3600
G1 X111.90 Y119.0 E15.4800 F2700
G1 X112.70 Y101.0 F3600
G1 X112.70 Y119.0 E16.1600 F2700
G1 X113.50 Y101.0 F3600
G1 X113.50 Y119.0 E16.8400 F2700
G1 X114.30 Y101.0 F3600
G1 X114.30 Y119.0 E17.5200 F2700
G1 X115.10 Y101.0 F3600
G1 X115.10 Y119.0 E18.2000 F2700
G1 X115.90 Y101.0 F3600
G1 X115.90 Y119.0 E18.8800 F2700
G1 X116.70 Y101.0 F3600
G1 X116.70 Y119.0 E19.5600 F2700
G1 X117.50 Y101.0 F3600
G1 X117.50 Y119.0 E20.2400 F2700
G1 X118.30 Y101.0 F3600
G1 X118.30 Y119.0 E20.9200 F2700
;LAYER:1
;LAYER_CHANGE Z=0.40
G1 Z0.40 F1500
M106 S255
;TYPE:WALL-OUTER
G1 X100.0 Y100.0 F4800
G1 X120.0 Y100.0 E21.6800 F1800
G1 X120.0 Y120.0 E22.4400
G1 X100.0 Y120.0 E23.2000
G1 X100.0 Y100.0 E23.9600
;TYPE:WALL-INNER
G1 X100.4 Y100.4 F3600
G1 X119.6 Y100.4 E24.6900 F2400
G1 X119.6 Y119.6 E25.4200
G1 X100.4 Y119.6 E26.1500
G1 X100.4 Y100.4 E26.8800
;TYPE:SKIN
G1 X101.50 Y101.0 F3600
G1 X101.50 Y119.0 E27.5600 F2700
G1 X102.30 Y101.0 F3600
G1 X102.30 Y119.0 E28.2400 F2700
G1 X103.10 Y101.0 F3600
G1 X103.10 Y119.0 E28.9200 F2700
G1 X103.90 Y101.0 F3600
G1 X103.90 Y119.0 E29.6000 F2700
G1 X104.70 Y101.0 F3600
G1 X104.70 Y119.0 E30.2800 F2700
G1 X105.50 Y101.0 F3600
G1 X105.50 Y119.0 E30.9600 F2700
G1 X106.30 Y101.0 F3600
G1 X106.30 Y119.0 E31.6400 F2700
G1 X107.10 Y101.0 F3600
G1 X107.10 Y119.0 E32.3200 F2700
G1 X107.90 Y101.0 F3600
G1 X107.90 Y119.0 E33.0000 F2700
G1 X108.70 Y101.0 F3600
G1 X108.70 Y119.0 E33.6800 F2700
G1 X109.50 Y101.0 F3600
G1 X109.50 Y119.0 E34.3600 F2700
G1 X110.30 Y101.0 F3600
G1 X110.30 Y119.0 E35.0400 F2700
G1 X111.10 Y101.0 F3600
G1 X111.10 Y119.0 E35.7200 F2700
G1 X111.90 Y101.0 F3600
G1 X111.90 Y119.0 E36.4000 F2700
G1 X112.70 Y101.0 F3600
G1 X112.70 Y119.0 E37.0800 F2700
G1 X113.50 Y101.0 F3600
G1 X113.50 Y119.0 E37.7600 F2700
G1 X114.30 Y101.0 F3600
G1 X114.30 Y119.0 E38.4400 F2700
G1 X115.10 Y101.0 F3600
G1 X115.10 Y119.0 E39.1200 F2700
G1 X115.90 Y101.0 F3600
G1 X115.90 Y119.0 E39.8000 F2700
G1 X116.70 Y101.0 F3600
G1 X116.70 Y119.0 E40.4800 F2700
G1 X117.50 Y101.0 F3600
G1 X117.50 Y119.0 E41.1600 F2700
G1 X118.30 Y101.0 F3600
G1 X118.30 Y119.0 E41.8400 F2700
;LAYER:2
;LAYER_CHANGE Z=0.60
G1 Z0.60 F1500
;TYPE:WALL-OUTER
G1 X100.0 Y100.0 F4800
G1 X120.0 Y100.0 E42.6000 F1800
G1 X120.0 Y120.0 E43.3600
G1 X100.0 Y120.0 E44.1200
G1 X100.0 Y100.0 E44.8800
;TYPE:WALL-INNER
G1 X100.4 Y100.4 F3600
G1 X119.6 Y100.4 E45.6100 F2400
G1 X119.6 Y119.6 E46.3400
G1 X100.4 Y119.6 E47.0700
G1 X100.4 Y100.4 E47.8000
;TYPE:SKIN
G1 X101.50 Y101.0 F3600
G1 X101.50 Y119.0 E48.4800 F2700
G1 X102.30 Y101.0 F3600
G1 X102.30 Y119.0 E49.1600 F2700
G1 X103.10 Y101.0 F3600
G1 X103.10 Y119.0 E49.8400 F2700
G1 X103.90 Y101.0 F3600
G1 X103.90 Y119.0 E50.5200 F2700
G1 X104.70 Y101.0 F3600
G1 X104.70 Y119.0 E51.2000 F2700
G1 X105.50 Y101.0 F3600
G1 X105.50 Y119.0 E51.8800 F2700
G1 X106.30 Y101.0 F3600
G1 X106.30 Y119.0 E52.5600 F2700
G1 X107.10 Y101.0 F3600
G1 X107.10 Y119.0 E53.2400 F2700
G1 X107.90 Y101.0 F3600
G1 X107.90 Y119.0 E53.9200 F2700
G1 X108.70 Y101.0 F3600
G1 X108.70 Y119.0 E54.6000 F2700
G1 X109.50 Y101.0 F3600
G1 X109.50 Y119.0 E55.2800 F2700
G1 X110.30 Y101.0 F3600
G1 X110.30 Y119.0 E55.9600 F2700
G1 X111.10 Y101.0 F3600
G1 X111.10 Y119.0 E56.6400 F2700
G1 X111.90 Y101.0 F3600
G1 X111.90 Y119.0 E57.3200 F2700
G1 X112.70 Y101.0 F3600
G1 X112.70 Y119.0 E58.0000 F2700
G1 X113.50 Y101.0 F3600
G1 X113.50 Y119.0 E58.6800 F2700
G1 X114.30 Y101.0 F3600
G1 X114.30 Y119.0 E59.3600 F2700
G1 X115.10 Y101.0 F3600
G1 X115.10 Y119.0 E60.0400 F2700
G1 X115.90 Y101.0 F3600
G1 X115.90 Y119.0 E60.7200 F2700
G1 X116.70 Y101.0 F3600
G1 X116.70 Y119.0 E61.4000 F2700
G1 X117.50 Y101.0 F3600
G1 X117.50 Y119.0 E62.0800 F2700
G1 X118.30 Y101.0 F3600
G1 X118.30 Y119.0 E62.7600 F2700
;LAYER:3
;LAYER_CHANGE Z=0.80
G1 Z0.80 F1500
;TYPE:WALL-OUTER
G1 X100.0 Y100.0 F4800
G1 X120.0 Y100.0 E63.5200 F1800
G1 X120.0 Y120.0 E64.2800
G1 X100.0 Y120.0 E65.0400
G1 X100.0 Y100.0 E65.8000
;TYPE:WALL-INNER
G1 X100.4 Y100.4 F3600
G1 X119.6 Y100.4 E66.5300 F2400
G1 X119.6 Y119.6 E67.2600
G1 X100.4 Y119.6 E67.9900
G1 X100.4 Y100.4 E68.7200
;TYPE:FILL
G1 X104.00 Y101.5 F4000
G1 X104.00 Y118.5 E69.3700 F3000
G1 X107.00 Y101.5 F4000
G1 X107.00 Y118.5 E70.0200 F3000
G1 X110.00 Y101.5 F4000
G1 X110.00 Y118.5 E70.6700 F3000
G1 X113.00 Y101.5 F4000
G1 X113.00 Y118.5 E71.3200 F3000
G1 X116.00 Y101.5 F4000
G1 X116.00 Y118.5 E71.9700 F3000
;LAYER:4
;LAYER_CHANGE Z=1.00
G1 Z1.00 F1500
;TYPE:WALL-OUTER
G1 X100.0 Y100.0 F4800
G1 X120.0 Y100.0 E72.7300 F1800
G1 X120.0 Y120.0 E73.4900
G1 X100.0 Y120.0 E74.2500
G1 X100.0 Y100.0 E75.0100
;TYPE:WALL-INNER
G1 X100.4 Y100.4 F3600
G1 X119.6 Y100.4 E75.7400 F2400
G1 X119.6 Y119.6 E76.4700
G1 X100.4 Y119.6 E77.2000
G1 X100.4 Y100.4 E77.9300
;TYPE:FILL
G1 X104.00 Y101.5 F4000
G1 X104.00 Y118.5 E78.5800 F3000
G1 X107.00 Y101.5 F4000
G1 X107.00 Y118.5 E79.2300 F3000
G1 X110.00 Y101.5 F4000
G1 X110.00 Y118.5 E79.8800 F3000
G1 X113.00 Y101.5 F4000
G1 X113.00 Y118.5 E80.5300 F3000
G1 X116.00 Y101.5 F4000
G1 X116.00 Y118.5 E81.1800 F3000
;LAYER:5
;LAYER_CHANGE Z=1.20
G1 Z1.20 F1500
;TYPE:WALL-OUTER
G1 X100.0 Y100.0 F4800
G1 X120.0 Y100.0 E81.9400 F1800
G1 X120.0 Y120.0 E82.7000
G1 X100.0 Y120.0 E83.4600
G1 X100.0 Y100.0 E84.2200
;TYPE:WALL-INNER
G1 X100.4 Y100.4 F3600
G1 X119.6 Y100.4 E84.9500 F2400
G1 X119.6 Y119.6 E85.6800
G1 X100.4 Y119.6 E86.4100
G1 X100.4 Y100.4 E87.1400
;TYPE:FILL
G1 X104.00 Y101.5 F4000
G1 X104.00 Y118.5 E87.7900 F3000
G1 X107.00 Y101.5 F4000
G1 X107.00 Y118.5 E88.4400 F3000
G1 X110.00 Y101.5 F4000
G1 X110.00 Y118.5 E89.0900 F3000
G1 X113.00 Y101.5 F4000
G1 X113.00 Y118.5 E89.7400 F3000
G1 X116.00 Y101.5 F4000
G1 X116.00 Y118.5 E90.3900 F3000
;LAYER:6
;LAYER_CHANGE Z=1.40
G1 Z1.40 F1500
;TYPE:WALL-OUTER
G1 X100.0 Y100.0 F4800
G1 X120.0 Y100.0 E91.1500 F1800
G1 X120.0 Y120.0 E91.9100
G1 X100.0 Y120.0 E92.6700
G1 X100.0 Y100.0 E93.4300
;TYPE:WALL-INNER
G1 X100.4 Y100.4 F3600
G1 X119.6 Y100.4 E94.1600 F2400
G1 X119.6 Y119.6 E94.8900
G1 X100.4 Y119.6 E95.6200
G1 X100.4 Y100.4 E96.3500
;TYPE:FILL
G1 X104.00 Y101.5 F4000
G1 X104.00 Y118.5 E97.0000 F3000
G1 X107.00 Y101.5 F4000
G1 X107.00 Y118.5 E97.6500 F3000
G1 X110.00 Y101.5 F4000
G1 X110.00 Y118.5 E98.3000 F3000
G1 X113.00 Y101.5 F4000
G1 X113.00 Y118.5 E98.9500 F3000
G1 X116.00 Y101.5 F4000
G1 X116.00 Y118.5 E99.6000 F3000
;LAYER:7
;LAYER_CHANGE Z=1.60
G1 Z1.60 F1500
;TYPE:WALL-OUTER
G1 X100.0 Y100.0 F4800
G1 X120.0 Y100.0 E100.3600 F1800
G1 X120.0 Y120.0 E101.1200
G1 X100.0 Y120.0 E101.8800
G1 X100.0 Y100.0 E102.6400
;TYPE:WALL-INNER
G1 X100.4 Y100.4 F3600
G1 X119.6 Y100.4 E103.3700 F2400
G1 X119.6 Y119.6 E104.1000
G1 X100.4 Y119.6 E104.8300
G1 X100.4 Y100.4 E105.5600
;TYPE:FILL
G1 X104.00 Y101.5 F4000
G1 X104.00 Y118.5 E106.2100 F3000
G1 X107.00 Y101.5 F4000
G1 X107.00 Y118.5 E106.8600 F3000
G1 X110.00 Y101.5 F4000
G1 X110.00 Y118.5 E107.5100 F3000
G1 X113.00 Y101.5 F4000
G1 X113.00 Y118.5 E108.1600 F3000
G1 X116.00 Y101.5 F4000
G1 X116.00 Y118.5 E108.8100 F3000
;LAYER:8
;LAYER_CHANGE Z=1.80
G1 Z1.80 F1500
;TYPE:WALL-OUTER
G1 X100.0 Y100.0 F4800
G1 X120.0 Y100.0 E109.5700 F1800
G1 X120.0 Y120.0 E110.3300
G1 X100.0 Y120.0 E111.0900
G1 X100.0 Y100.0 E111.8500
;TYPE:WALL-INNER
G1 X100.4 Y100.4 F3600
G1 X119.6 Y100.4 E112.5800 F2400
G1 X119.6 Y119.6 E113.3100
G1 X100.4 Y119.6 E114.0400
G1 X100.4 Y100.4 E114.7700
;TYPE:FILL
G1 X104.00 Y101.5 F4000
G1 X104.00 Y118.5 E115.4200 F3000
G1 X107.00 Y101.5 F4000
G1 X107.00 Y118.5 E116.0700 F3000
G1 X110.00 Y101.5 F4000
G1 X110.00 Y118.5 E116.7200 F3000
G1 X113.00 Y101.5 F4000
G1 X113.00 Y118.5 E117.3700 F3000
G1 X116.00 Y101.5 F4000
G1 X116.00 Y118.5 E118.0200 F3000
;LAYER:9
;LAYER_CHANGE Z=2.00
G1 Z2.00 F1500
;TYPE:WALL-OUTER
G1 X100.0 Y100.0 F4800
G1 X120.0 Y100.0 E118.7800 F1800
G1 X120.0 Y120.0 E119.5400
G1 X100.0 Y120.0 E120.3000
G1 X100.0 Y100.0 E121.0600
;TYPE:WALL-INNER
G1 X100.4 Y100.4 F3600
G1 X119.6 Y100.4 E121.7900 F2400
G1 X119.6 Y119.6 E122.5200
G1 X100.4 Y119.6 E123.2500
G1 X100.4 Y100.4 E123.9800
;TYPE:FILL
G1 X104.00 Y101.5 F4000
G1 X104.00 Y118.5 E124.6300 F3000
G1 X107.00 Y101.5 F4000
G1 X107.00 Y118.5 E125.2800 F3000
G1 X110.00 Y101.5 F4000
G1 X110.00 Y118.5 E125.9300 F3000
G1 X113.00 Y101.5 F4000
G1 X113.00 Y118.5 E126.5800 F3000
G1 X116.00 Y101.5 F4000
G1 X116.00 Y118.5 E127.2300 F3000
;LAYER:10
;LAYER_CHANGE Z=2.20
G1 Z2.20 F1500
;TYPE:WALL-OUTER
G1 X100.0 Y100.0 F4800
G1 X120.0 Y100.0 E127.9900 F1800
G1 X120.0 Y120.0 E128.7500
G1 X100.0 Y120.0 E129.5100
G1 X100.0 Y100.0 E130.2700
;TYPE:WALL-INNER
G1 X100.4 Y100.4 F3600
G1 X119.6 Y100.4 E131.0000 F2400
G1 X119.6 Y119.6 E131.7300
G1 X100.4 Y119.6 E132.4600
G1 X100.4 Y100.4 E133.1900
;TYPE:FILL
G1 X104.00 Y101.5 F4000
G1 X104.00 Y118.5 E133.8400 F3000
G1 X107.00 Y101.5 F4000
G1 X107.00 Y118.5 E134.4900 F3000
G1 X110.00 Y101.5 F4000
G1 X110.00 Y118.5 E135.1400 F3000
G1 X113.00 Y101.5 F4000
G1 X113.00 Y118.5 E135.7900 F3000
G1 X116.00 Y101.5 F4000
G1 X116.00 Y118.5 E136.4400 F3000
;LAYER:11
;LAYER_CHANGE Z=2.40
G1 Z2.40 F1500
;TYPE:WALL-OUTER
G1 X100.0 Y100.0 F4800
G1 X120.0 Y100.0 E137.2000 F1800
G1 X120.0 Y120.0 E137.9600
G1 X100.0 Y120.0 E138.7200
G1 X100.0 Y100.0 E139.4800
;TYPE:WALL-INNER
G1 X100.4 Y100.4 F3600
G1 X119.6 Y100.4 E140.2100 F2400
G1 X119.6 Y119.6 E140.9400
G1 X100.4 Y119.6 E141.6700
G1 X100.4 Y100.4 E142.4000
;TYPE:FILL
G1 X104.00 Y101.5 F4000
G1 X104.00 Y118.5 E143.0500 F3000
G1 X107.00 Y101.5 F4000
G1 X107.00 Y118.5 E143.7000 F3000
G1 X110.00 Y101.5 F4000
G1 X110.00 Y118.5 E144.3500 F3000
G1 X113.00 Y101.5 F4000
G1 X113.00 Y118.5 E145.0000 F3000
G1 X116.00 Y101.5 F4000
G1 X116.00 Y118.5 E145.6500 F3000
;LAYER:12
;LAYER_CHANGE Z=2.60
G1 Z2.60 F1500
;TYPE:WALL-OUTER
G1 X100.0 Y100.0 F4800
G1 X120.0 Y100.0 E146.4100 F1800
G1 X120.0 Y120.0 E147.1700
G1 X100.0 Y120.0 E147.9300
G1 X100.0 Y100.0 E148.6900
;TYPE:WALL-INNER
G1 X100.4 Y100.4 F3600
G1 X119.6 Y100.4 E149.4200 F2400
G1 X119.6 Y119.6 E150.1500
G1 X100.4 Y119.6 E150.8800
G1 X100.4 Y100.4 E151.6100
;TYPE:FILL
G1 X104.00 Y101.5 F4000
G1 X104.00 Y118.5 E152.2600 F3000
G1 X107.00 Y101.5 F4000
G1 X107.00 Y118.5 E152.9100 F3000
G1 X110.00 Y101.5 F4000
G1 X110.00 Y118.5 E153.5600 F3000
G1 X113.00 Y101.5 F4000
G1 X113.00 Y118.5 E154.2100 F3000
G1 X116.00 Y101.5 F4000
G1 X116.00 Y118.5 E154.8600 F3000
;LAYER:13
;LAYER_CHANGE Z=2.80
G1 Z2.80 F1500
;TYPE:WALL-OUTER
G1 X100.0 Y100.0 F4800
G1 X120.0 Y100.0 E155.6200 F1800
G1 X120.0 Y120.0 E156.3800
G1 X100.0 Y120.0 E157.1400
G1 X100.0 Y100.0 E157.9000
;TYPE:WALL-INNER
G1 X100.4 Y100.4 F3600
G1 X119.6 Y100.4 E158.6300 F2400
G1 X119.6 Y119.6 E159.3600
G1 X100.4 Y119.6 E160.0900
G1 X100.4 Y100.4 E160.8200
;TYPE:FILL
G1 X104.00 Y101.5 F4000
G1 X104.00 Y118.5 E161.4700 F3000
G1 X107.00 Y101.5 F4000
G1 X107.00 Y118.5 E162.1200 F3000
G1 X110.00 Y101.5 F4000
G1 X110.00 Y118.5 E162.7700 F3000
G1 X113.00 Y101.5 F4000
G1 X113.00 Y118.5 E163.4200 F3000
G1 X116.00 Y101.5 F4000
G1 X116.00 Y118.5 E164.0700 F3000
;LAYER:14
;LAYER_CHANGE Z=3.00
G1 Z3.00 F1500
;TYPE:WALL-OUTER
G1 X100.0 Y100.0 F4800
G1 X120.0 Y100.0 E164.8300 F1800
G1 X120.0 Y120.0 E165.5900
G1 X100.0 Y120.0 E166.3500
G1 X100.0 Y100.0 E167.1100
;TYPE:WALL-INNER
G1 X100.4 Y100.4 F3600
G1 X119.6 Y100.4 E167.8400 F2400
G1 X119.6 Y119.6 E168.5700
G1 X100.4 Y119.6 E169.3000
G1 X100.4 Y100.4 E170.0300
;TYPE:FILL
G1 X104.00 Y101.5 F4000
G1 X104.00 Y118.5 E170.6800 F3000
G1 X107.00 Y101.5 F4000
G1 X107.00 Y118.5 E171.3300 F3000
G1 X110.00 Y101.5 F4000
G1 X110.00 Y118.5 E171.9800 F3000
G1 X113.00 Y101.5 F4000
G1 X113.00 Y118.5 E172.6300 F3000
G1 X116.00 Y101.5 F4000
G1 X116.00 Y118.5 E173.2800 F3000
;LAYER:15
;LAYER_CHANGE Z=3.20
G1 Z3.20 F1500
;TYPE:WALL-OUTER
G1 X100.0 Y100.0 F4800
G1 X120.0 Y100.0 E174.0400 F1800
G1 X120.0 Y120.0 E174.8000
G1 X100.0 Y120.0 E175.5600
G1 X100.0 Y100.0 E176.3200
;TYPE:WALL-INNER
G1 X100.4 Y100.4 F3600
G1 X119.6 Y100.4 E177.0500 F2400
G1 X119.6 Y119.6 E177.7800
G1 X100.4 Y119.6 E178.5100
G1 X100.4 Y100.4 E179.2400
;TYPE:FILL
G1 X104.00 Y101.5 F4000
G1 X104.00 Y118.5 E179.8900 F3000
G1 X107.00 Y101.5 F4000
G1 X107.00 Y118.5 E180.5400 F3000
G1 X110.00 Y101.5 F4000
G1 X110.00 Y118.5 E181.1900 F3000
G1 X113.00 Y101.5 F4000
G1 X113.00 Y118.5 E181.8400 F3000
G1 X116.00 Y101.5 F4000
G1 X116.00 Y118.5 E182.4900 F3000
;LAYER:16
;LAYER_CHANGE Z=3.40
G1 Z3.40 F1500
;TYPE:WALL-OUTER
G1 X100.0 Y100.0 F4800
G1 X120.0 Y100.0 E183.2500 F1800
G1 X120.0 Y120.0 E184.0100
G1 X100.0 Y120.0 E184.7700
G1 X100.0 Y100.0 E185.5300
;TYPE:WALL-INNER
G1 X100.4 Y100.4 F3600
G1 X119.6 Y100.4 E186.2600 F2400
G1 X119.6 Y119.6 E186.9900
G1 X100.4 Y119.6 E187.7200
G1 X100.4 Y100.4 E188.4500
;TYPE:FILL
G1 X104.00 Y101.5 F4000
G1 X104.00 Y118.5 E189.1000 F3000
G1 X107.00 Y101.5 F4000
G1 X107.00 Y118.5 E189.7500 F3000
G1 X110.00 Y101.5 F4000
G1 X110.00 Y118.5 E190.4000 F3000
G1 X113.00 Y101.5 F4000
G1 X113.00 Y118.5 E191.0500 F3000
G1 X116.00 Y101.5 F4000
G1 X116.00 Y118.5 E191.7000 F3000
;LAYER:17
;LAYER_CHANGE Z=3.60
G1 Z3.60 F1500
;TYPE:WALL-OUTER
G1 X100.0 Y100.0 F4800
G1 X120.0 Y100.0 E192.4600 F1800
G1 X120.0 Y120.0 E193.2200
G1 X100.0 Y120.0 E193.9800
G1 X100.0 Y100.0 E194.7400
;TYPE:WALL-INNER
G1 X100.4 Y100.4 F3600
G1 X119.6 Y100.4 E195.4700 F2400
G1 X119.6 Y119.6 E196.2000
G1 X100.4 Y119.6 E196.9300
G1 X100.4 Y100.4 E197.6600
;TYPE:FILL
G1 X104.00 Y101.5 F4000
G1 X104.00 Y118.5 E198.3100 F3000
G1 X107.00 Y101.5 F4000
G1 X107.00 Y118.5 E198.9600 F3000
G1 X110.00 Y101.5 F4000
G1 X110.00 Y118.5 E199.6100 F3000
G1 X113.00 Y101.5 F4000
G1 X113.00 Y118.5 E200.2600 F3000
G1 X116.00 Y101.5 F4000
G1 X116.00 Y118.5 E200.9100 F3000
;LAYER:18
;LAYER_CHANGE Z=3.80
G1 Z3.80 F1500
;TYPE:WALL-OUTER
G1 X100.0 Y100.0 F4800
G1 X120.0 Y100.0 E201.6700 F1800
G1 X120.0 Y120.0 E202.4300
G1 X100.0 Y120.0 E203.1900
G1 X100.0 Y100.0 E203.9500
;TYPE:WALL-INNER
G1 X100.4 Y100.4 F3600
G1 X119.6 Y100.4 E204.6800 F2400
G1 X119.6 Y119.6 E205.4100
G1 X100.4 Y119.6 E206.1400
G1 X100.4 Y100.4 E206.8700
;TYPE:FILL
G1 X104.00 Y101.5 F4000
G1 X104.00 Y118.5 E207.5200 F3000
G1 X107.00 Y101.5 F4000
G1 X107.00 Y118.5 E208.1700 F3000
G1 X110.00 Y101.5 F4000
G1 X110.00 Y118.5 E208.8200 F3000
G1 X113.00 Y101.5 F4000
G1 X113.00 Y118.5 E209.4700 F3000
G1 X116.00 Y101.5 F4000
G1 X116.00 Y118.5 E210.1200 F3000
;LAYER:19
;LAYER_CHANGE Z=4.00
G1 Z4.00 F1500
;TYPE:WALL-OUTER
G1 X100.0 Y100.0 F4800
G1 X120.0 Y100.0 E210.8800 F1800
G1 X120.0 Y120.0 E211.6400
G1 X100.0 Y120.0 E212.4000
G1 X100.0 Y100.0 E213.1600
;TYPE:WALL-INNER
G1 X100.4 Y100.4 F3600
G1 X119.6 Y100.4 E213.8900 F2400
G1 X119.6 Y119.6 E214.6200
G1 X100.4 Y119.6 E215.3500
G1 X100.4 Y100.4 E216.0800
;TYPE:FILL
G1 X104.00 Y101.5 F4000
G1 X104.00 Y118.5 E216.7300 F3000
G1 X107.00 Y101.5 F4000
G1 X107.00 Y118.5 E217.3800 F3000
G1 X110.00 Y101.5 F4000
G1 X110.00 Y118.5 E218.0300 F3000
G1 X113.00 Y101.5 F4000
G1 X113.00 Y118.5 E218.6800 F3000
G1 X116.00 Y101.5 F4000
G1 X116.00 Y118.5 E219.3300 F3000
;LAYER:20
;LAYER_CHANGE Z=4.20
G1 Z4.20 F1500
;TYPE:WALL-OUTER
G1 X100.0 Y100.0 F4800
G1 X120.0 Y100.0 E220.0900 F1800
G1 X120.0 Y120.0 E220.8500
G1 X100.0 Y120.0 E221.6100
G1 X100.0 Y100.0 E222.3700
;TYPE:WALL-INNER
G1 X100.4 Y100.4 F3600
G1 X119.6 Y100.4 E223.1000 F2400
G1 X119.6 Y119.6 E223.8300
G1 X100.4 Y119.6 E224.5600
G1 X100.4 Y100.4 E225.2900
;TYPE:FILL
G1 X104.00 Y101.5 F4000
G1 X104.00 Y118.5 E225.9400 F3000
G1 X107.00 Y101.5 F4000
G1 X107.00 Y118.5 E226.5900 F3000
G1 X110.00 Y101.5 F4000
G1 X110.00 Y118.5 E227.2400 F3000
G1 X113.00 Y101.5 F4000
G1 X113.00 Y118.5 E227.8900 F3000
G1 X116.00 Y101.5 F4000
G1 X116.00 Y118.5 E228.5400 F3000
;LAYER:21
;LAYER_CHANGE Z=4.40
G1 Z4.40 F1500
;TYPE:WALL-OUTER
G1 X100.0 Y100.0 F4800
G1 X120.0 Y100.0 E229.3000 F1800
G1 X120.0 Y120.0 E230.0600
G1 X100.0 Y120.0 E230.8200
G1 X100.0 Y100.0 E231.5800
;TYPE:WALL-INNER
G1 X100.4 Y100.4 F3600
G1 X119.6 Y100.4 E232.3100 F2400
G1 X119.6 Y119.6 E233.0400
G1 X100.4 Y119.6 E233.7700
G1 X100.4 Y100.4 E234.5000
;TYPE:FILL
G1 X104.00 Y101.5 F4000
G1 X104.00 Y118.5 E235.1500 F3000
G1 X107.00 Y101.5 F4000
G1 X107.00 Y118.5 E235.8000 F3000
G1 X110.00 Y101.5 F4000
G1 X110.00 Y118.5 E236.4500 F3000
G1 X113.00 Y101.5 F4000
G1 X113.00 Y118.5 E237.1000 F3000
G1 X116.00 Y101.5 F4000
G1 X116.00 Y118.5 E237.7500 F3000
;LAYER:22
;LAYER_CHANGE Z=4.60
G1 Z4.60 F1500
;TYPE:WALL-OUTER
G1 X100.0 Y100.0 F4800
G1 X120.0 Y100.0 E238.5100 F1800
G1 X120.0 Y120.0 E239.2700
G1 X100.0 Y120.0 E240.0300
G1 X100.0 Y100.0 E240.7900
;TYPE:WALL-INNER
G1 X100.4 Y100.4 F3600
G1 X119.6 Y100.4 E241.5200 F2400
G1 X119.6 Y119.6 E242.2500
G1 X100.4 Y119.6 E242.9800
G1 X100.4 Y100.4 E243.7100
;TYPE:FILL
G1 X104.00 Y101.5 F4000
G1 X104.00 Y118.5 E244.3600 F3000
G1 X107.00 Y101.5 F4000
G1 X107.00 Y118.5 E245.0100 F3000
G1 X110.00 Y101.5 F4000
G1 X110.00 Y118.5 E245.6600 F3000
G1 X113.00 Y101.5 F4000
G1 X113.00 Y118.5 E246.3100 F3000
G1 X116.00 Y101.5 F4000
G1 X116.00 Y118.5 E246.9600 F3000
;LAYER:23
;LAYER_CHANGE Z=4.80
G1 Z4.80 F1500
;TYPE:WALL-OUTER
G1 X100.0 Y100.0 F4800
G1 X120.0 Y100.0 E247.7200 F1800
G1 X120.0 Y120.0 E248.4800
G1 X100.0 Y120.0 E249.2400
G1 X100.0 Y100.0 E250.0000
;TYPE:WALL-INNER
G1 X100.4 Y100.4 F3600
G1 X119.6 Y100.4 E250.7300 F2400
G1 X119.6 Y119.6 E251.4600
G1 X100.4 Y119.6 E252.1900
G1 X100.4 Y100.4 E252.9200
;TYPE:FILL
G1 X104.00 Y101.5 F4000
G1 X104.00 Y118.5 E253.5700 F3000
G1 X107.00 Y101.5 F4000
G1 X107.00 Y118.5 E254.2200 F3000
G1 X110.00 Y101.5 F4000
G1 X110.00 Y118.5 E254.8700 F3000
G1 X113.00 Y101.5 F4000
G1 X113.00 Y118.5 E255.5200 F3000
G1 X116.00 Y101.5 F4000
G1 X116.00 Y118.5 E256.1700 F3000
;LAYER:24
;LAYER_CHANGE Z=5.00
G1 Z5.00 F1500
;TYPE:WALL-OUTER
G1 X100.0 Y100.0 F4800
G1 X120.0 Y100.0 E256.9300 F1800
G1 X120.0 Y120.0 E257.6900
G1 X100.0 Y120.0 E258.4500
G1 X100.0 Y100.0 E259.2100
;TYPE:WALL-INNER
G1 X100.4 Y100.4 F3600
G1 X119.6 Y100.4 E259.9400 F2400
G1 X119.6 Y119.6 E260.6700
G1 X100.4 Y119.6 E261.4000
G1 X100.4 Y100.4 E262.1300
;TYPE:FILL
G1 X104.00 Y101.5 F4000
G1 X104.00 Y118.5 E262.7800 F3000
G1 X107.00 Y101.5 F4000
G1 X107.00 Y118.5 E263.4300 F3000
G1 X110.00 Y101.5 F4000
G1 X110.00 Y118.5 E264.0800 F3000
G1 X113.00 Y101.5 F4000
G1 X113.00 Y118.5 E264.7300 F3000
G1 X116.00 Y101.5 F4000
G1 X116.00 Y118.5 E265.3800 F3000
;LAYER:25
;LAYER_CHANGE Z=5.20
G1 Z5.20 F1500
;TYPE:WALL-OUTER
G1 X100.0 Y100.0 F4800
G1 X120.0 Y100.0 E266.1400 F1800
G1 X120.0 Y120.0 E266.9000
G1 X100.0 Y120.0 E267.6600
G1 X100.0 Y100.0 E268.4200
;TYPE:WALL-INNER
G1 X100.4 Y100.4 F3600
G1 X119.6 Y100.4 E269.1500 F2400
G1 X119.6 Y119.6 E269.8800
G1 X100.4 Y119.6 E270.6100
G1 X100.4 Y100.4 E271.3400
;TYPE:FILL
G1 X104.00 Y101.5 F4000
G1 X104.00 Y118.5 E271.9900 F3000
G1 X107.00 Y101.5 F4000
G1 X107.00 Y118.5 E272.6400 F3000
G1 X110.00 Y101.5 F4000
G1 X110.00 Y118.5 E273.2900 F3000
G1 X113.00 Y101.5 F4000
G1 X113.00 Y118.5 E273.9400 F3000
G1 X116.00 Y101.5 F4000
G1 X116.00 Y118.5 E274.5900 F3000
;LAYER:26
;LAYER_CHANGE Z=5.40
G1 Z5.40 F1500
;TYPE:WALL-OUTER
G1 X100.0 Y100.0 F4800
G1 X120.0 Y100.0 E275.3500 F1800
G1 X120.0 Y120.0 E276.1100
G1 X100.0 Y120.0 E276.8700
G1 X100.0 Y100.0 E277.6300
;TYPE:WALL-INNER
G1 X100.4 Y100.4 F3600
G1 X119.6 Y100.4 E278.3600 F2400
G1 X119.6 Y119.6 E279.0900
G1 X100.4 Y119.6 E279.8200
G1 X100.4 Y100.4 E280.5500
;TYPE:FILL
G1 X104.00 Y101.5 F4000
G1 X104.00 Y118.5 E281.2000 F3000
G1 X107.00 Y101.5 F4000
G1 X107.00 Y118.5 E281.8500 F3000
G1 X110.00 Y101.5 F4000
G1 X110.00 Y118.5 E282.5000 F3000
G1 X113.00 Y101.5 F4000
G1 X113.00 Y118.5 E283.1500 F3000
G1 X116.00 Y101.5 F4000
G1 X116.00 Y118.5 E283.8000 F3000
;LAYER:27
;LAYER_CHANGE Z=5.60
G1 Z5.60 F1500
;TYPE:WALL-OUTER
G1 X100.0 Y100.0 F4800
G1 X120.0 Y100.0 E284.5600 F1800
G1 X120.0 Y120.0 E285.3200
G1 X100.0 Y120.0 E286.0800
G1 X100.0 Y100.0 E286.8400
;TYPE:WALL-INNER
G1 X100.4 Y100.4 F3600
G1 X119.6 Y100.4 E287.5700 F2400
G1 X119.6 Y119.6 E288.3000
G1 X100.4 Y119.6 E289.0300
G1 X100.4 Y100.4 E289.7600
;TYPE:FILL
G1 X104.00 Y101.5 F4000
G1 X104.00 Y118.5 E290.4100 F3000
G1 X107.00 Y101.5 F4000
G1 X107.00 Y118.5 E291.0600 F3000
G1 X110.00 Y101.5 F4000
G1 X110.00 Y118.5 E291.7100 F3000
G1 X113.00 Y101.5 F4000
G1 X113.00 Y118.5 E292.3600 F3000
G1 X116.00 Y101.5 F4000
G1 X116.00 Y118.5 E293.0100 F3000
;LAYER:28
;LAYER_CHANGE Z=5.80
G1 Z5.80 F1500
;TYPE:WALL-OUTER
G1 X100.0 Y100.0 F4800
G1 X120.0 Y100.0 E293.7700 F1800
G1 X120.0 Y120.0 E294.5300
G1 X100.0 Y120.0 E295.2900
G1 X100.0 Y100.0 E296.0500
;TYPE:WALL-INNER
G1 X100.4 Y100.4 F3600
G1 X119.6 Y100.4 E296.7800 F2400
G1 X119.6 Y119.6 E297.5100
G1 X100.4 Y119.6 E298.2400
G1 X100.4 Y100.4 E298.9700
;TYPE:FILL
G1 X104.00 Y101.5 F4000
G1 X104.00 Y118.5 E299.6200 F3000
G1 X107.00 Y101.5 F4000
G1 X107.00 Y118.5 E300.2700 F3000
G1 X110.00 Y101.5 F4000
G1 X110.00 Y118.5 E300.9200 F3000
G1 X113.00 Y101.5 F4000
G1 X113.00 Y118.5 E301.5700 F3000
G1 X116.00 Y101.5 F4000
G1 X116.00 Y118.5 E302.2200 F3000
;LAYER:29
;LAYER_CHANGE Z=6.00
G1 Z6.00 F1500
;TYPE:WALL-OUTER
G1 X100.0 Y100.0 F4800
G1 X120.0 Y100.0 E302.9800 F1800
G1 X120.0 Y120.0 E303.7400
G1 X100.0 Y120.0 E304.5000
G1 X100.0 Y100.0 E305.2600
;TYPE:WALL-INNER
G1 X100.4 Y100.4 F3600
G1 X119.6 Y100.4 E305.9900 F2400
G1 X119.6 Y119.6 E306.7200
G1 X100.4 Y119.6 E307.4500
G1 X100.4 Y100.4 E308.1800
;TYPE:FILL
G1 X104.00 Y101.5 F4000
G1 X104.00 Y118.5 E308.8300 F3000
G1 X107.00 Y101.5 F4000
G1 X107.00 Y118.5 E309.4800 F3000
G1 X110.00 Y101.5 F4000
G1 X110.00 Y118.5 E310.1300 F3000
G1 X113.00 Y101.5 F4000
G1 X113.00 Y118.5 E310.7800 F3000
G1 X116.00 Y101.5 F4000
G1 X116.00 Y118.5 E311.4300 F3000
;LAYER:30
;LAYER_CHANGE Z=6.20
G1 Z6.20 F1500
;TYPE:WALL-OUTER
G1 X100.0 Y100.0 F4800
G1 X120.0 Y100.0 E312.1900 F1800
G1 X120.0 Y120.0 E312.9500
G1 X100.0 Y120.0 E313.7100
G1 X100.0 Y100.0 E314.4700
;TYPE:WALL-INNER
G1 X100.4 Y100.4 F3600
G1 X119.6 Y100.4 E315.2000 F2400
G1 X119.6 Y119.6 E315.9300
G1 X100.4 Y119.6 E316.6600
G1 X100.4 Y100.4 E317.3900
;TYPE:FILL
G1 X104.00 Y101.5 F4000
G1 X104.00 Y118.5 E318.0400 F3000
G1 X107.00 Y101.5 F4000
G1 X107.00 Y118.5 E318.6900 F3000
G1 X110.00 Y101.5 F4000
G1 X110.00 Y118.5 E319.3400 F3000
G1 X113.00 Y101.5 F4000
G1 X113.00 Y118.5 E319.9900 F3000
G1 X116.00 Y101.5 F4000
G1 X116.00 Y118.5 E320.6400 F3000
;LAYER:31
;LAYER_CHANGE Z=6.40
G1 Z6.40 F1500
;TYPE:WALL-OUTER
G1 X100.0 Y100.0 F4800
G1 X120.0 Y100.0 E321.4000 F1800
G1 X120.0 Y120.0 E322.1600
G1 X100.0 Y120.0 E322.9200
G1 X100.0 Y100.0 E323.6800
;TYPE:WALL-INNER
G1 X100.4 Y100.4 F3600
G1 X119.6 Y100.4 E324.4100 F2400
G1 X119.6 Y119.6 E325.1400
G1 X100.4 Y119.6 E325.8700
G1 X100.4 Y100.4 E326.6000
;TYPE:FILL
G1 X104.00 Y101.5 F4000
G1 X104.00 Y118.5 E327.2500 F3000
G1 X107.00 Y101.5 F4000
G1 X107.00 Y118.5 E327.9000 F3000
G1 X110.00 Y101.5 F4000
G1 X110.00 Y118.5 E328.5500 F3000
G1 X113.00 Y101.5 F4000
G1 X113.00 Y118.5 E329.2000 F3000
G1 X116.00 Y101.5 F4000
G1 X116.00 Y118.5 E329.8500 F3000
;LAYER:32
;LAYER_CHANGE Z=6.60
G1 Z6.60 F1500
;TYPE:WALL-OUTER
G1 X100.0 Y100.0 F4800
G1 X120.0 Y100.0 E330.6100 F1800
G1 X120.0 Y120.0 E331.3700
G1 X100.0 Y120.0 E332.1300
G1 X100.0 Y100.0 E332.8900
;TYPE:WALL-INNER
G1 X100.4 Y100.4 F3600
G1 X119.6 Y100.4 E333.6200 F2400
G1 X119.6 Y119.6 E334.3500
G1 X100.4 Y119.6 E335.0800
G1 X100.4 Y100.4 E335.8100
;TYPE:FILL
G1 X104.00 Y101.5 F4000
G1 X104.00 Y118.5 E336.4600 F3000
G1 X107.00 Y101.5 F4000
G1 X107.00 Y118.5 E337.1100 F3000
G1 X110.00 Y101.5 F4000
G1 X110.00 Y118.5 E337.7600 F3000
G1 X113.00 Y101.5 F4000
G1 X113.00 Y118.5 E338.4100 F3000
G1 X116.00 Y101.5 F4000
G1 X116.00 Y118.5 E339.0600 F3000
;LAYER:33
;LAYER_CHANGE Z=6.80
G1 Z6.80 F1500
;TYPE:WALL-OUTER
G1 X100.0 Y100.0 F4800
G1 X120.0 Y100.0 E339.8200 F1800
G1 X120.0 Y120.0 E340.5800
G1 X100.0 Y120.0 E341.3400
G1 X100.0 Y100.0 E342.1000
;TYPE:WALL-INNER
G1 X100.4 Y100.4 F3600
G1 X119.6 Y100.4 E342.8300 F2400
G1 X119.6 Y119.6 E343.5600
G1 X100.4 Y119.6 E344.2900
G1 X100.4 Y100.4 E345.0200
;TYPE:FILL
G1 X104.00 Y101.5 F4000
G1 X104.00 Y118.5 E345.6700 F3000
G1 X107.00 Y101.5 F4000
G1 X107.00 Y118.5 E346.3200 F3000
G1 X110.00 Y101.5 F4000
G1 X110.00 Y118.5 E346.9700 F3000
G1 X113.00 Y101.5 F4000
G1 X113.00 Y118.5 E347.6200 F3000
G1 X116.00 Y101.5 F4000
G1 X116.00 Y118.5 E348.2700 F3000
;LAYER:34
;LAYER_CHANGE Z=7.00
G1 Z7.00 F1500
;TYPE:WALL-OUTER
G1 X100.0 Y100.0 F4800
G1 X120.0 Y100.0 E349.0300 F1800
G1 X120.0 Y120.0 E349.7900
G1 X100.0 Y120.0 E350.5500
G1 X100.0 Y100.0 E351.3100
;TYPE:WALL-INNER
G1 X100.4 Y100.4 F3600
G1 X119.6 Y100.4 E352.0400 F2400
G1 X119.6 Y119.6 E352.7700
G1 X100.4 Y119.6 E353.5000
G1 X100.4 Y100.4 E354.2300
;TYPE:FILL
G1 X104.00 Y101.5 F4000
G1 X104.00 Y118.5 E354.8800 F3000
G1 X107.00 Y101.5 F4000
G1 X107.00 Y118.5 E355.5300 F3000
G1 X110.00 Y101.5 F4000
G1 X110.00 Y118.5 E356.1800 F3000
G1 X113.00 Y101.5 F4000
G1 X113.00 Y118.5 E356.8300 F3000
G1 X116.00 Y101.5 F4000
G1 X116.00 Y118.5 E357.4800 F3000
;LAYER:35
;LAYER_CHANGE Z=7.20
G1 Z7.20 F1500
;TYPE:WALL-OUTER
G1 X100.0 Y100.0 F4800
G1 X120.0 Y100.0 E358.2400 F1800
G1 X120.0 Y120.0 E359.0000
G1 X100.0 Y120.0 E359.7600
G1 X100.0 Y100.0 E360.5200
;TYPE:WALL-INNER
G1 X100.4 Y100.4 F3600
G1 X119.6 Y100.4 E361.2500 F2400
G1 X119.6 Y119.6 E361.9800
G1 X100.4 Y119.6 E362.7100
G1 X100.4 Y100.4 E363.4400
;TYPE:FILL
G1 X104.00 Y101.5 F4000
G1 X104.00 Y118.5 E364.0900 F3000
G1 X107.00 Y101.5 F4000
G1 X107.00 Y118.5 E364.7400 F3000
G1 X110.00 Y101.5 F4000
G1 X110.00 Y118.5 E365.3900 F3000
G1 X113.00 Y101.5 F4000
G1 X113.00 Y118.5 E366.0400 F3000
G1 X116.00 Y101.5 F4000
G1 X116.00 Y118.5 E366.6900 F3000
;LAYER:36
;LAYER_CHANGE Z=7.40
G1 Z7.40 F1500
;TYPE:WALL-OUTER
G1 X100.0 Y100.0 F4800
G1 X120.0 Y100.0 E367.4500 F1800
G1 X120.0 Y120.0 E368.2100
G1 X100.0 Y120.0 E368.9700
G1 X100.0 Y100.0 E369.7300
;TYPE:WALL-INNER
G1 X100.4 Y100.4 F3600
G1 X119.6 Y100.4 E370.4600 F2400
G1 X119.6 Y119.6 E371.1900
G1 X100.4 Y119.6 E371.9200
G1 X100.4 Y100.4 E372.6500
;TYPE:FILL
G1 X104.00 Y101.5 F4000
G1 X104.00 Y118.5 E373.3000 F3000
G1 X107.00 Y101.5 F4000
G1 X107.00 Y118.5 E373.9500 F3000
G1 X110.00 Y101.5 F4000
G1 X110.00 Y118.5 E374.6000 F3000
G1 X113.00 Y101.5 F4000
G1 X113.00 Y118.5 E375.2500 F3000
G1 X116.00 Y101.5 F4000
G1 X116.00 Y118.5 E375.9000 F3000
;LAYER:37
;LAYER_CHANGE Z=7.60
G1 Z7.60 F1500
;TYPE:WALL-OUTER
G1 X100.0 Y100.0 F4800
G1 X120.0 Y100.0 E376.6600 F1800
G1 X120.0 Y120.0 E377.4200
G1 X100.0 Y120.0 E378.1800
G1 X100.0 Y100.0 E378.9400
;TYPE:WALL-INNER
G1 X100.4 Y100.4 F3600
G1 X119.6 Y100.4 E379.6700 F2400
G1 X119.6 Y119.6 E380.4000
G1 X100.4 Y119.6 E381.1300
G1 X100.4 Y100.4 E381.8600
;TYPE:FILL
G1 X104.00 Y101.5 F4000
G1 X104.00 Y118.5 E382.5100 F3000
G1 X107.00 Y101.5 F4000
G1 X107.00 Y118.5 E383.1600 F3000
G1 X110.00 Y101.5 F4000
G1 X110.00 Y118.5 E383.8100 F3000
G1 X113.00 Y101.5 F4000
G1 X113.00 Y118.5 E384.4600 F3000
G1 X116.00 Y101.5 F4000
G1 X116.00 Y118.5 E385.1100 F3000
;LAYER:38
;LAYER_CHANGE Z=7.80
G1 Z7.80 F1500
;TYPE:WALL-OUTER
G1 X100.0 Y100.0 F4800
G1 X120.0 Y100.0 E385.8700 F1800
G1 X120.0 Y120.0 E386.6300
G1 X100.0 Y120.0 E387.3900
G1 X100.0 Y100.0 E388.1500
;TYPE:WALL-INNER
G1 X100.4 Y100.4 F3600
G1 X119.6 Y100.4 E388.8800 F2400
G1 X119.6 Y119.6 E389.6100
G1 X100.4 Y119.6 E390.3400
G1 X100.4 Y100.4 E391.0700
;TYPE:FILL
G1 X104.00 Y101.5 F4000
G1 X104.00 Y118.5 E391.7200 F3000
G1 X107.00 Y101.5 F4000
G1 X107.00 Y118.5 E392.3700 F3000
G1 X110.00 Y101.5 F4000
G1 X110.00 Y118.5 E393.0200 F3000
G1 X113.00 Y101.5 F4000
G1 X113.00 Y118.5 E393.6700 F3000
G1 X116.00 Y101.5 F4000
G1 X116.00 Y118.5 E394.3200 F3000
;LAYER:39
;LAYER_CHANGE Z=8.00
G1 Z8.00 F1500
;TYPE:WALL-OUTER
G1 X100.0 Y100.0 F4800
G1 X120.0 Y100.0 E395.0800 F1800
G1 X120.0 Y120.0 E395.8400
G1 X100.0 Y120.0 E396.6000
G1 X100.0 Y100.0 E397.3600
;TYPE:WALL-INNER
G1 X100.4 Y100.4 F3600
G1 X119.6 Y100.4 E398.0900 F2400
G1 X119.6 Y119.6 E398.8200
G1 X100.4 Y119.6 E399.5500
G1 X100.4 Y100.4 E400.2800
;TYPE:FILL
G1 X104.00 Y101.5 F4000
G1 X104.00 Y118.5 E400.9300 F3000
G1 X107.00 Y101.5 F4000
G1 X107.00 Y118.5 E401.5800 F3000
G1 X110.00 Y101.5 F4000
G1 X110.00 Y118.5 E402.2300 F3000
G1 X113.00 Y101.5 F4000
G1 X113.00 Y118.5 E402.8800 F3000
G1 X116.00 Y101.5 F4000
G1 X116.00 Y118.5 E403.5300 F3000
;LAYER:40
;LAYER_CHANGE Z=8.20
G1 Z8.20 F1500
;TYPE:WALL-OUTER
G1 X100.0 Y100.0 F4800
G1 X120.0 Y100.0 E404.2900 F1800
G1 X120.0 Y120.0 E405.0500
G1 X100.0 Y120.0 E405.8100
G1 X100.0 Y100.0 E406.5700
;TYPE:WALL-INNER
G1 X100.4 Y100.4 F3600
G1 X119.6 Y100.4 E407.3000 F2400
G1 X119.6 Y119.6 E408.0300
G1 X100.4 Y119.6 E408.7600
G1 X100.4 Y100.4 E409.4900
;TYPE:FILL
G1 X104.00 Y101.5 F4000
G1 X104.00 Y118.5 E410.1400 F3000
G1 X107.00 Y101.5 F4000
G1 X107.00 Y118.5 E410.7900 F3000
G1 X110.00 Y101.5 F4000
G1 X110.00 Y118.5 E411.4400 F3000
G1 X113.00 Y101.5 F4000
G1 X113.00 Y118.5 E412.0900 F3000
G1 X116.00 Y101.5 F4000
G1 X116.00 Y118.5 E412.7400 F3000
;LAYER:41
;LAYER_CHANGE Z=8.40
G1 Z8.40 F1500
;TYPE:WALL-OUTER
G1 X100.0 Y100.0 F4800
G1 X120.0 Y100.0 E413.5000 F1800
G1 X120.0 Y120.0 E414.2600
G1 X100.0 Y120.0 E415.0200
G1 X100.0 Y100.0 E415.7800
;TYPE:WALL-INNER
G1 X100.4 Y100.4 F3600
G1 X119.6 Y100.4 E416.5100 F2400
G1 X119.6 Y119.6 E417.2400
G1 X100.4 Y119.6 E417.9700
G1 X100.4 Y100.4 E418.7000
;TYPE:FILL
G1 X104.00 Y101.5 F4000
G1 X104.00 Y118.5 E419.3500 F3000
G1 X107.00 Y101.5 F4000
G1 X107.00 Y118.5 E420.0000 F3000
G1 X110.00 Y101.5 F4000
G1 X110.00 Y118.5 E420.6500 F3000
G1 X113.00 Y101.5 F4000
G1 X113.00 Y118.5 E421.3000 F3000
G1 X116.00 Y101.5 F4000
G1 X116.00 Y118.5 E421.9500 F3000
;LAYER:42
;LAYER_CHANGE Z=8.60
G1 Z8.60 F1500
;TYPE:WALL-OUTER
G1 X100.0 Y100.0 F4800
G1 X120.0 Y100.0 E422.7100 F1800
G1 X120.0 Y120.0 E423.4700
G1 X100.0 Y120.0 E424.2300
G1 X100.0 Y100.0 E424.9900
;TYPE:WALL-INNER
G1 X100.4 Y100.4 F3600
G1 X119.6 Y100.4 E425.7200 F2400
G1 X119.6 Y119.6 E426.4500
G1 X100.4 Y119.6 E427.1800
G1 X100.4 Y100.4 E427.9100
;TYPE:FILL
G1 X104.00 Y101.5 F4000
G1 X104.00 Y118.5 E428.5600 F3000
G1 X107.00 Y101.5 F4000
G1 X107.00 Y118.5 E429.2100 F3000
G1 X110.00 Y101.5 F4000
G1 X110.00 Y118.5 E429.8600 F3000
G1 X113.00 Y101.5 F4000
G1 X113.00 Y118.5 E430.5100 F3000
G1 X116.00 Y101.5 F4000
G1 X116.00 Y118.5 E431.1600 F3000
;LAYER:43
;LAYER_CHANGE Z=8.80
G1 Z8.80 F1500
;TYPE:WALL-OUTER
G1 X100.0 Y100.0 F4800
G1 X120.0 Y100.0 E431.9200 F1800
G1 X120.0 Y120.0 E432.6800
G1 X100.0 Y120.0 E433.4400
G1 X100.0 Y100.0 E434.2000
;TYPE:WALL-INNER
G1 X100.4 Y100.4 F3600
G1 X119.6 Y100.4 E434.9300 F2400
G1 X119.6 Y119.6 E435.6600
G1 X100.4 Y119.6 E436.3900
G1 X100.4 Y100.4 E437.1200
;TYPE:FILL
G1 X104.00 Y101.5 F4000
G1 X104.00 Y118.5 E437.7700 F3000
G1 X107.00 Y101.5 F4000
G1 X107.00 Y118.5 E438.4200 F3000
G1 X110.00 Y101.5 F4000
G1 X110.00 Y118.5 E439.0700 F3000
G1 X113.00 Y101.5 F4000
G1 X113.00 Y118.5 E439.7200 F3000
G1 X116.00 Y101.5 F4000
G1 X116.00 Y118.5 E440.3700 F3000
;LAYER:44
;LAYER_CHANGE Z=9.00
G1 Z9.00 F1500
;TYPE:WALL-OUTER
G1 X100.0 Y100.0 F4800
G1 X120.0 Y100.0 E441.1300 F1800
G1 X120.0 Y120.0 E441.8900
G1 X100.0 Y120.0 E442.6500
G1 X100.0 Y100.0 E443.4100
;TYPE:WALL-INNER
G1 X100.4 Y100.4 F3600
G1 X119.6 Y100.4 E444.1400 F2400
G1 X119.6 Y119.6 E444.8700
G1 X100.4 Y119.6 E445.6000
G1 X100.4 Y100.4 E446.3300
;TYPE:FILL
G1 X104.00 Y101.5 F4000
G1 X104.00 Y118.5 E446.9800 F3000
G1 X107.00 Y101.5 F4000
G1 X107.00 Y118.5 E447.6300 F3000
G1 X110.00 Y101.5 F4000
G1 X110.00 Y118.5 E448.2800 F3000
G1 X113.00 Y101.5 F4000
G1 X113.00 Y118.5 E448.9300 F3000
G1 X116.00 Y101.5 F4000
G1 X116.00 Y118.5 E449.5800 F3000
;LAYER:45
;LAYER_CHANGE Z=9.20
G1 Z9.20 F1500
;TYPE:WALL-OUTER
G1 X100.0 Y100.0 F4800
G1 X120.0 Y100.0 E450.3400 F1800
G1 X120.0 Y120.0 E451.1000
G1 X100.0 Y120.0 E451.8600
G1 X100.0 Y100.0 E452.6200
;TYPE:WALL-INNER
G1 X100.4 Y100.4 F3600
G1 X119.6 Y100.4 E453.3500 F2400
G1 X119.6 Y119.6 E454.0800
G1 X100.4 Y119.6 E454.8100
G1 X100.4 Y100.4 E455.5400
;TYPE:FILL
G1 X104.00 Y101.5 F4000
G1 X104.00 Y118.5 E456.1900 F3000
G1 X107.00 Y101.5 F4000
G1 X107.00 Y118.5 E456.8400 F3000
G1 X110.00 Y101.5 F4000
G1 X110.00 Y118.5 E457.4900 F3000
G1 X113.00 Y101.5 F4000
G1 X113.00 Y118.5 E458.1400 F3000
G1 X116.00 Y101.5 F4000
G1 X116.00 Y118.5 E458.7900 F3000
;LAYER:46
;LAYER_CHANGE Z=9.40
G1 Z9.40 F1500
;TYPE:WALL-OUTER
G1 X100.0 Y100.0 F4800
G1 X120.0 Y100.0 E459.5500 F1800
G1 X120.0 Y120.0 E460.3100
G1 X100.0 Y120.0 E461.0700
G1 X100.0 Y100.0 E461.8300
;TYPE:WALL-INNER
G1 X100.4 Y100.4 F3600
G1 X119.6 Y100.4 E462.5600 F2400
G1 X119.6 Y119.6 E463.2900
G1 X100.4 Y119.6 E464.0200
G1 X100.4 Y100.4 E464.7500
;TYPE:FILL
G1 X104.00 Y101.5 F4000
G1 X104.00 Y118.5 E465.4000 F3000
G1 X107.00 Y101.5 F4000
G1 X107.00 Y118.5 E466.0500 F3000
G1 X110.00 Y101.5 F4000
G1 X110.00 Y118.5 E466.7000 F3000
G1 X113.00 Y101.5 F4000
G1 X113.00 Y118.5 E467.3500 F3000
G1 X116.00 Y101.5 F4000
G1 X116.00 Y118.5 E468.0000 F3000
;LAYER:47
;LAYER_CHANGE Z=9.60
G1 Z9.60 F1500
;TYPE:WALL-OUTER
G1 X100.0 Y100.0 F4800
G1 X120.0 Y100.0 E468.7600 F1800
G1 X120.0 Y120.0 E469.5200
G1 X100.0 Y120.0 E470.2800
G1 X100.0 Y100.0 E471.0400
;TYPE:WALL-INNER
G1 X100.4 Y100.4 F3600
G1 X119.6 Y100.4 E471.7700 F2400
G1 X119.6 Y119.6 E472.5000
G1 X100.4 Y119.6 E473.2300
G1 X100.4 Y100.4 E473.9600
;TYPE:FILL
G1 X104.00 Y101.5 F4000
G1 X104.00 Y118.5 E474.6100 F3000
G1 X107.00 Y101.5 F4000
G1 X107.00 Y118.5 E475.2600 F3000
G1 X110.00 Y101.5 F4000
G1 X110.00 Y118.5 E475.9100 F3000
G1 X113.00 Y101.5 F4000
G1 X113.00 Y118.5 E476.5600 F3000
G1 X116.00 Y101.5 F4000
G1 X116.00 Y118.5 E477.2100 F3000
;LAYER:48
;LAYER_CHANGE Z=9.80
G1 Z9.80 F1500
;TYPE:WALL-OUTER
G1 X100.0 Y100.0 F4800
G1 X120.0 Y100.0 E477.9700 F1800
G1 X120.0 Y120.0 E478.7300
G1 X100.0 Y120.0 E479.4900
G1 X100.0 Y100.0 E480.2500
;TYPE:WALL-INNER
G1 X100.4 Y100.4 F3600
G1 X119.6 Y100.4 E480.9800 F2400
G1 X119.6 Y119.6 E481.7100
G1 X100.4 Y119.6 E482.4400
G1 X100.4 Y100.4 E483.1700
;TYPE:FILL
G1 X104.00 Y101.5 F4000
G1 X104.00 Y118.5 E483.8200 F3000
G1 X107.00 Y101.5 F4000
G1 X107.00 Y118.5 E484.4700 F3000
G1 X110.00 Y101.5 F4000
G1 X110.00 Y118.5 E485.1200 F3000
G1 X113.00 Y101.5 F4000
G1 X113.00 Y118.5 E485.7700 F3000
G1 X116.00 Y101.5 F4000
G1 X116.00 Y118.5 E486.4200 F3000
;LAYER:49
;LAYER_CHANGE Z=10.00
G1 Z10.00 F1500
;TYPE:WALL-OUTER
G1 X100.0 Y100.0 F4800
G1 X120.0 Y100.0 E487.1800 F1800
G1 X120.0 Y120.0 E487.9400
G1 X100.0 Y120.0 E488.7000
G1 X100.0 Y100.0 E489.4600
;TYPE:WALL-INNER
G1 X100.4 Y100.4 F3600
G1 X119.6 Y100.4 E490.1900 F2400
G1 X119.6 Y119.6 E490.9200
G1 X100.4 Y119.6 E491.6500
G1 X100.4 Y100.4 E492.3800
;TYPE:FILL
G1 X104.00 Y101.5 F4000
G1 X104.00 Y118.5 E493.0300 F3000
G1 X107.00 Y101.5 F4000
G1 X107.00 Y118.5 E493.6800 F3000
G1 X110.00 Y101.5 F4000
G1 X110.00 Y118.5 E494.3300 F3000
G1 X113.00 Y101.5 F4000
G1 X113.00 Y118.5 E494.9800 F3000
G1 X116.00 Y101.5 F4000
G1 X116.00 Y118.5 E495.6300 F3000
;LAYER:50
;LAYER_CHANGE Z=10.20
G1 Z10.20 F1500
;TYPE:WALL-OUTER
G1 X100.0 Y100.0 F4800
G1 X120.0 Y100.0 E496.3900 F1800
G1 X120.0 Y120.0 E497.1500
G1 X100.0 Y120.0 E497.9100
G1 X100.0 Y100.0 E498.6700
;TYPE:WALL-INNER
G1 X100.4 Y100.4 F3600
G1 X119.6 Y100.4 E499.4000 F2400
G1 X119.6 Y119.6 E500.1300
G1 X100.4 Y119.6 E500.8600
G1 X100.4 Y100.4 E501.5900
;TYPE:FILL
G1 X104.00 Y101.5 F4000
G1 X104.00 Y118.5 E502.2400 F3000
G1 X107.00 Y101.5 F4000
G1 X107.00 Y118.5 E502.8900 F3000
G1 X110.00 Y101.5 F4000
G1 X110.00 Y118.5 E503.5400 F3000
G1 X113.00 Y101.5 F4000
G1 X113.00 Y118.5 E504.1900 F3000
G1 X116.00 Y101.5 F4000
G1 X116.00 Y118.5 E504.8400 F3000
;LAYER:51
;LAYER_CHANGE Z=10.40
G1 Z10.40 F1500
;TYPE:WALL-OUTER
G1 X100.0 Y100.0 F4800
G1 X120.0 Y100.0 E505.6000 F1800
G1 X120.0 Y120.0 E506.3600
G1 X100.0 Y120.0 E507.1200
G1 X100.0 Y100.0 E507.8800
;TYPE:WALL-INNER
G1 X100.4 Y100.4 F3600
G1 X119.6 Y100.4 E508.6100 F2400
G1 X119.6 Y119.6 E509.3400
G1 X100.4 Y119.6 E510.0700
G1 X100.4 Y100.4 E510.8000
;TYPE:FILL
G1 X104.00 Y101.5 F4000
G1 X104.00 Y118.5 E511.4500 F3000
G1 X107.00 Y101.5 F4000
G1 X107.00 Y118.5 E512.1000 F3000
G1 X110.00 Y101.5 F4000
G1 X110.00 Y118.5 E512.7500 F3000
G1 X113.00 Y101.5 F4000
G1 X113.00 Y118.5 E513.4000 F3000
G1 X116.00 Y101.5 F4000
G1 X116.00 Y118.5 E514.0500 F3000
;LAYER:52
;LAYER_CHANGE Z=10.60
G1 Z10.60 F1500
;TYPE:WALL-OUTER
G1 X100.0 Y100.0 F4800
G1 X120.0 Y100.0 E514.8100 F1800
G1 X120.0 Y120.0 E515.5700
G1 X100.0 Y120.0 E516.3300
G1 X100.0 Y100.0 E517.0900
;TYPE:WALL-INNER
G1 X100.4 Y100.4 F3600
G1 X119.6 Y100.4 E517.8200 F2400
G1 X119.6 Y119.6 E518.5500
G1 X100.4 Y119.6 E519.2800
G1 X100.4 Y100.4 E520.0100
;TYPE:FILL
G1 X104.00 Y101.5 F4000
G1 X104.00 Y118.5 E520.6600 F3000
G1 X107.00 Y101.5 F4000
G1 X107.00 Y118.5 E521.3100 F3000
G1 X110.00 Y101.5 F4000
G1 X110.00 Y118.5 E521.9600 F3000
G1 X113.00 Y101.5 F4000
G1 X113.00 Y118.5 E522.6100 F3000
G1 X116.00 Y101.5 F4000
G1 X116.00 Y118.5 E523.2600 F3000
;LAYER:53
;LAYER_CHANGE Z=10.80
G1 Z10.80 F1500
;TYPE:WALL-OUTER
G1 X100.0 Y100.0 F4800
G1 X120.0 Y100.0 E524.0200 F1800
G1 X120.0 Y120.0 E524.7800
G1 X100.0 Y120.0 E525.5400
G1 X100.0 Y100.0 E526.3000
;TYPE:WALL-INNER
G1 X100.4 Y100.4 F3600
G1 X119.6 Y100.4 E527.0300 F2400
G1 X119.6 Y119.6 E527.7600
G1 X100.4 Y119.6 E528.4900
G1 X100.4 Y100.4 E529.2200
;TYPE:FILL
G1 X104.00 Y101.5 F4000
G1 X104.00 Y118.5 E529.8700 F3000
G1 X107.00 Y101.5 F4000
G1 X107.00 Y118.5 E530.5200 F3000
G1 X110.00 Y101.5 F4000
G1 X110.00 Y118.5 E531.1700 F3000
G1 X113.00 Y101.5 F4000
G1 X113.00 Y118.5 E531.8200 F3000
G1 X116.00 Y101.5 F4000
G1 X116.00 Y118.5 E532.4700 F3000
;LAYER:54
;LAYER_CHANGE Z=11.00
G1 Z11.00 F1500
;TYPE:WALL-OUTER
G1 X100.0 Y100.0 F4800
G1 X120.0 Y100.0 E533.2300 F1800
G1 X120.0 Y120.0 E533.9900
G1 X100.0 Y120.0 E534.7500
G1 X100.0 Y100.0 E535.5100
;TYPE:WALL-INNER
G1 X100.4 Y100.4 F3600
G1 X119.6 Y100.4 E536.2400 F2400
G1 X119.6 Y119.6 E536.9700
G1 X100.4 Y119.6 E537.7000
G1 X100.4 Y100.4 E538.4300
;TYPE:FILL
G1 X104.00 Y101.5 F4000
G1 X104.00 Y118.5 E539.0800 F3000
G1 X107.00 Y101.5 F4000
G1 X107.00 Y118.5 E539.7300 F3000
G1 X110.00 Y101.5 F4000
G1 X110.00 Y118.5 E540.3800 F3000
G1 X113.00 Y101.5 F4000
G1 X113.00 Y118.5 E541.0300 F3000
G1 X116.00 Y101.5 F4000
G1 X116.00 Y118.5 E541.6800 F3000
;LAYER:55
;LAYER_CHANGE Z=11.20
G1 Z11.20 F1500
;TYPE:WALL-OUTER
G1 X100.0 Y100.0 F4800
G1 X120.0 Y100.0 E542.4400 F1800
G1 X120.0 Y120.0 E543.2000
G1 X100.0 Y120.0 E543.9600
G1 X100.0 Y100.0 E544.7200
;TYPE:WALL-INNER
G1 X100.4 Y100.4 F3600
G1 X119.6 Y100.4 E545.4500 F2400
G1 X119.6 Y119.6 E546.1800
G1 X100.4 Y119.6 E546.9100
G1 X100.4 Y100.4 E547.6400
;TYPE:FILL
G1 X104.00 Y101.5 F4000
G1 X104.00 Y118.5 E548.2900 F3000
G1 X107.00 Y101.5 F4000
G1 X107.00 Y118.5 E548.9400 F3000
G1 X110.00 Y101.5 F4000
G1 X110.00 Y118.5 E549.5900 F3000
G1 X113.00 Y101.5 F4000
G1 X113.00 Y118.5 E550.2400 F3000
G1 X116.00 Y101.5 F4000
G1 X116.00 Y118.5 E550.8900 F3000
;LAYER:56
;LAYER_CHANGE Z=11.40
G1 Z11.40 F1500
;TYPE:WALL-OUTER
G1 X100.0 Y100.0 F4800
G1 X120.0 Y100.0 E551.6500 F1800
G1 X120.0 Y120.0 E552.4100
G1 X100.0 Y120.0 E553.1700
G1 X100.0 Y100.0 E553.9300
;TYPE:WALL-INNER
G1 X100.4 Y100.4 F3600
G1 X119.6 Y100.4 E554.6600 F2400
G1 X119.6 Y119.6 E555.3900
G1 X100.4 Y119.6 E556.1200
G1 X100.4 Y100.4 E556.8500
;TYPE:FILL
G1 X104.00 Y101.5 F4000
G1 X104.00 Y118.5 E557.5000 F3000
G1 X107.00 Y101.5 F4000
G1 X107.00 Y118.5 E558.1500 F3000
G1 X110.00 Y101.5 F4000
G1 X110.00 Y118.5 E558.8000 F3000
G1 X113.00 Y101.5 F4000
G1 X113.00 Y118.5 E559.4500 F3000
G1 X116.00 Y101.5 F4000
G1 X116.00 Y118.5 E560.1000 F3000
;LAYER:57
;LAYER_CHANGE Z=11.60
G1 Z11.60 F1500
;TYPE:WALL-OUTER
G1 X100.0 Y100.0 F4800
G1 X120.0 Y100.0 E560.8600 F1800
G1 X120.0 Y120.0 E561.6200
G1 X100.0 Y120.0 E562.3800
G1 X100.0 Y100.0 E563.1400
;TYPE:WALL-INNER
G1 X100.4 Y100.4 F3600
G1 X119.6 Y100.4 E563.8700 F2400
G1 X119.6 Y119.6 E564.6000
G1 X100.4 Y119.6 E565.3300
G1 X100.4 Y100.4 E566.0600
;TYPE:FILL
G1 X104.00 Y101.5 F4000
G1 X104.00 Y118.5 E566.7100 F3000
G1 X107.00 Y101.5 F4000
G1 X107.00 Y118.5 E567.3600 F3000
G1 X110.00 Y101.5 F4000
G1 X110.00 Y118.5 E568.0100 F3000
G1 X113.00 Y101.5 F4000
G1 X113.00 Y118.5 E568.6600 F3000
G1 X116.00 Y101.5 F4000
G1 X116.00 Y118.5 E569.3100 F3000
;LAYER:58
;LAYER_CHANGE Z=11.80
G1 Z11.80 F1500
;TYPE:WALL-OUTER
G1 X100.0 Y100.0 F4800
G1 X120.0 Y100.0 E570.0700 F1800
G1 X120.0 Y120.0 E570.8300
G1 X100.0 Y120.0 E571.5900
G1 X100.0 Y100.0 E572.3500
;TYPE:WALL-INNER
G1 X100.4 Y100.4 F3600
G1 X119.6 Y100.4 E573.0800 F2400
G1 X119.6 Y119.6 E573.8100
G1 X100.4 Y119.6 E574.5400
G1 X100.4 Y100.4 E575.2700
;TYPE:FILL
G1 X104.00 Y101.5 F4000
G1 X104.00 Y118.5 E575.9200 F3000
G1 X107.00 Y101.5 F4000
G1 X107.00 Y118.5 E576.5700 F3000
G1 X110.00 Y101.5 F4000
G1 X110.00 Y118.5 E577.2200 F3000
G1 X113.00 Y101.5 F4000
G1 X113.00 Y118.5 E577.8700 F3000
G1 X116.00 Y101.5 F4000
G1 X116.00 Y118.5 E578.5200 F3000
;LAYER:59
;LAYER_CHANGE Z=12.00
G1 Z12.00 F1500
;TYPE:WALL-OUTER
G1 X100.0 Y100.0 F4800
G1 X120.0 Y100.0 E579.2800 F1800
G1 X120.0 Y120.0 E580.0400
G1 X100.0 Y120.0 E580.8000
G1 X100.0 Y100.0 E581.5600
;TYPE:WALL-INNER
G1 X100.4 Y100.4 F3600
G1 X119.6 Y100.4 E582.2900 F2400
G1 X119.6 Y119.6 E583.0200
G1 X100.4 Y119.6 E583.7500
G1 X100.4 Y100.4 E584.4800
;TYPE:FILL
G1 X104.00 Y101.5 F4000
G1 X104.00 Y118.5 E585.1300 F3000
G1 X107.00 Y101.5 F4000
G1 X107.00 Y118.5 E585.7800 F3000
G1 X110.00 Y101.5 F4000
G1 X110.00 Y118.5 E586.4300 F3000
G1 X113.00 Y101.5 F4000
G1 X113.00 Y118.5 E587.0800 F3000
G1 X116.00 Y101.5 F4000
G1 X116.00 Y118.5 E587.7300 F3000
;LAYER:60
;LAYER_CHANGE Z=12.20
G1 Z12.20 F1500
;TYPE:WALL-OUTER
G1 X100.0 Y100.0 F4800
G1 X120.0 Y100.0 E588.4900 F1800
G1 X120.0 Y120.0 E589.2500
G1 X100.0 Y120.0 E590.0100
G1 X100.0 Y100.0 E590.7700
;TYPE:WALL-INNER
G1 X100.4 Y100.4 F3600
G1 X119.6 Y100.4 E591.5000 F2400
G1 X119.6 Y119.6 E592.2300
G1 X100.4 Y119.6 E592.9600
G1 X100.4 Y100.4 E593.6900
;TYPE:FILL
G1 X104.00 Y101.5 F4000
G1 X104.00 Y118.5 E594.3400 F3000
G1 X107.00 Y101.5 F4000
G1 X107.00 Y118.5 E594.9900 F3000
G1 X110.00 Y101.5 F4000
G1 X110.00 Y118.5 E595.6400 F3000
G1 X113.00 Y101.5 F4000
G1 X113.00 Y118.5 E596.2900 F3000
G1 X116.00 Y101.5 F4000
G1 X116.00 Y118.5 E596.9400 F3000
;LAYER:61
;LAYER_CHANGE Z=12.40
G1 Z12.40 F1500
;TYPE:WALL-OUTER
G1 X100.0 Y100.0 F4800
G1 X120.0 Y100.0 E597.7000 F1800
G1 X120.0 Y120.0 E598.4600
G1 X100.0 Y120.0 E599.2200
G1 X100.0 Y100.0 E599.9800
;TYPE:WALL-INNER
G1 X100.4 Y100.4 F3600
G1 X119.6 Y100.4 E600.7100 F2400
G1 X119.6 Y119.6 E601.4400
G1 X100.4 Y119.6 E602.1700
G1 X100.4 Y100.4 E602.9000
;TYPE:FILL
G1 X104.00 Y101.5 F4000
G1 X104.00 Y118.5 E603.5500 F3000
G1 X107.00 Y101.5 F4000
G1 X107.00 Y118.5 E604.2000 F3000
G1 X110.00 Y101.5 F4000
G1 X110.00 Y118.5 E604.8500 F3000
G1 X113.00 Y101.5 F4000
G1 X113.00 Y118.5 E605.5000 F3000
G1 X116.00 Y101.5 F4000
G1 X116.00 Y118.5 E606.1500 F3000
;LAYER:62
;LAYER_CHANGE Z=12.60
G1 Z12.60 F1500
;TYPE:WALL-OUTER
G1 X100.0 Y100.0 F4800
G1 X120.0 Y100.0 E606.9100 F1800
G1 X120.0 Y120.0 E607.6700
G1 X100.0 Y120.0 E608.4300
G1 X100.0 Y100.0 E609.1900
;TYPE:WALL-INNER
G1 X100.4 Y100.4 F3600
G1 X119.6 Y100.4 E609.9200 F2400
G1 X119.6 Y119.6 E610.6500
G1 X100.4 Y119.6 E611.3800
G1 X100.4 Y100.4 E612.1100
;TYPE:FILL
G1 X104.00 Y101.5 F4000
G1 X104.00 Y118.5 E612.7600 F3000
G1 X107.00 Y101.5 F4000
G1 X107.00 Y118.5 E613.4100 F3000
G1 X110.00 Y101.5 F4000
G1 X110.00 Y118.5 E614.0600 F3000
G1 X113.00 Y101.5 F4000
G1 X113.00 Y118.5 E614.7100 F3000
G1 X116.00 Y101.5 F4000
G1 X116.00 Y118.5 E615.3600 F3000
;LAYER:63
;LAYER_CHANGE Z=12.80
G1 Z12.80 F1500
;TYPE:WALL-OUTER
G1 X100.0 Y100.0 F4800
G1 X120.0 Y100.0 E616.1200 F1800
G1 X120.0 Y120.0 E616.8800
G1 X100.0 Y120.0 E617.6400
G1 X100.0 Y100.0 E618.4000
;TYPE:WALL-INNER
G1 X100.4 Y100.4 F3600
G1 X119.6 Y100.4 E619.1300 F2400
G1 X119.6 Y119.6 E619.8600
G1 X100.4 Y119.6 E620.5900
G1 X100.4 Y100.4 E621.3200
;TYPE:FILL
G1 X104.00 Y101.5 F4000
G1 X104.00 Y118.5 E621.9700 F3000
G1 X107.00 Y101.5 F4000
G1 X107.00 Y118.5 E622.6200 F3000
G1 X110.00 Y101.5 F4000
G1 X110.00 Y118.5 E623.2700 F3000
G1 X113.00 Y101.5 F4000
G1 X113.00 Y118.5 E623.9200 F3000
G1 X116.00 Y101.5 F4000
G1 X116.00 Y118.5 E624.5700 F3000
;LAYER:64
;LAYER_CHANGE Z=13.00
G1 Z13.00 F1500
;TYPE:WALL-OUTER
G1 X100.0 Y100.0 F4800
G1 X120.0 Y100.0 E625.3300 F1800
G1 X120.0 Y120.0 E626.0900
G1 X100.0 Y120.0 E626.8500
G1 X100.0 Y100.0 E627.6100
;TYPE:WALL-INNER
G1 X100.4 Y100.4 F3600
G1 X119.6 Y100.4 E628.3400 F2400
G1 X119.6 Y119.6 E629.0700
G1 X100.4 Y119.6 E629.8000
G1 X100.4 Y100.4 E630.5300
;TYPE:FILL
G1 X104.00 Y101.5 F4000
G1 X104.00 Y118.5 E631.1800 F3000
G1 X107.00 Y101.5 F4000
G1 X107.00 Y118.5 E631.8300 F3000
G1 X110.00 Y101.5 F4000
G1 X110.00 Y118.5 E632.4800 F3000
G1 X113.00 Y101.5 F4000
G1 X113.00 Y118.5 E633.1300 F3000
G1 X116.00 Y101.5 F4000
G1 X116.00 Y118.5 E633.7800 F3000
;LAYER:65
;LAYER_CHANGE Z=13.20
G1 Z13.20 F1500
;TYPE:WALL-OUTER
G1 X100.0 Y100.0 F4800
G1 X120.0 Y100.0 E634.5400 F1800
G1 X120.0 Y120.0 E635.3000
G1 X100.0 Y120.0 E636.0600
G1 X100.0 Y100.0 E636.8200
;TYPE:WALL-INNER
G1 X100.4 Y100.4 F3600
G1 X119.6 Y100.4 E637.5500 F2400
G1 X119.6 Y119.6 E638.2800
G1 X100.4 Y119.6 E639.0100
G1 X100.4 Y100.4 E639.7400
;TYPE:FILL
G1 X104.00 Y101.5 F4000
G1 X104.00 Y118.5 E640.3900 F3000
G1 X107.00 Y101.5 F4000
G1 X107.00 Y118.5 E641.0400 F3000
G1 X110.00 Y101.5 F4000
G1 X110.00 Y118.5 E641.6900 F3000
G1 X113.00 Y101.5 F4000
G1 X113.00 Y118.5 E642.3400 F3000
G1 X116.00 Y101.5 F4000
G1 X116.00 Y118.5 E642.9900 F3000
;LAYER:66
;LAYER_CHANGE Z=13.40
G1 Z13.40 F1500
;TYPE:WALL-OUTER
G1 X100.0 Y100.0 F4800
G1 X120.0 Y100.0 E643.7500 F1800
G1 X120.0 Y120.0 E644.5100
G1 X100.0 Y120.0 E645.2700
G1 X100.0 Y100.0 E646.0300
;TYPE:WALL-INNER
G1 X100.4 Y100.4 F3600
G1 X119.6 Y100.4 E646.7600 F2400
G1 X119.6 Y119.6 E647.4900
G1 X100.4 Y119.6 E648.2200
G1 X100.4 Y100.4 E648.9500
;TYPE:FILL
G1 X104.00 Y101.5 F4000
G1 X104.00 Y118.5 E649.6000 F3000
G1 X107.00 Y101.5 F4000
G1 X107.00 Y118.5 E650.2500 F3000
G1 X110.00 Y101.5 F4000
G1 X110.00 Y118.5 E650.9000 F3000
G1 X113.00 Y101.5 F4000
G1 X113.00 Y118.5 E651.5500 F3000
G1 X116.00 Y101.5 F4000
G1 X116.00 Y118.5 E652.2000 F3000
;LAYER:67
;LAYER_CHANGE Z=13.60
G1 Z13.60 F1500
;TYPE:WALL-OUTER
G1 X100.0 Y100.0 F4800
G1 X120.0 Y100.0 E652.9600 F1800
G1 X120.0 Y120.0 E653.7200
G1 X100.0 Y120.0 E654.4800
G1 X100.0 Y100.0 E655.2400
;TYPE:WALL-INNER
G1 X100.4 Y100.4 F3600
G1 X119.6 Y100.4 E655.9700 F2400
G1 X119.6 Y119.6 E656.7000
G1 X100.4 Y119.6 E657.4300
G1 X100.4 Y100.4 E658.1600
;TYPE:FILL
G1 X104.00 Y101.5 F4000
G1 X104.00 Y118.5 E658.8100 F3000
G1 X107.00 Y101.5 F4000
G1 X107.00 Y118.5 E659.4600 F3000
G1 X110.00 Y101.5 F4000
G1 X110.00 Y118.5 E660.1100 F3000
G1 X113.00 Y101.5 F4000
G1 X113.00 Y118.5 E660.7600 F3000
G1 X116.00 Y101.5 F4000
G1 X116.00 Y118.5 E661.4100 F3000
;LAYER:68
;LAYER_CHANGE Z=13.80
G1 Z13.80 F1500
;TYPE:WALL-OUTER
G1 X100.0 Y100.0 F4800
G1 X120.0 Y100.0 E662.1700 F1800
G1 X120.0 Y120.0 E662.9300
G1 X100.0 Y120.0 E663.6900
G1 X100.0 Y100.0 E664.4500
;TYPE:WALL-INNER
G1 X100.4 Y100.4 F3600
G1 X119.6 Y100.4 E665.1800 F2400
G1 X119.6 Y119.6 E665.9100
G1 X100.4 Y119.6 E666.6400
G1 X100.4 Y100.4 E667.3700
;TYPE:FILL
G1 X104.00 Y101.5 F4000
G1 X104.00 Y118.5 E668.0200 F3000
G1 X107.00 Y101.5 F4000
G1 X107.00 Y118.5 E668.6700 F3000
G1 X110.00 Y101.5 F4000
G1 X110.00 Y118.5 E669.3200 F3000
G1 X113.00 Y101.5 F4000
G1 X113.00 Y118.5 E669.9700 F3000
G1 X116.00 Y101.5 F4000
G1 X116.00 Y118.5 E670.6200 F3000
;LAYER:69
;LAYER_CHANGE Z=14.00
G1 Z14.00 F1500
;TYPE:WALL-OUTER
G1 X100.0 Y100.0 F4800
G1 X120.0 Y100.0 E671.3800 F1800
G1 X120.0 Y120.0 E672.1400
G1 X100.0 Y120.0 E672.9000
G1 X100.0 Y100.0 E673.6600
;TYPE:WALL-INNER
G1 X100.4 Y100.4 F3600
G1 X119.6 Y100.4 E674.3900 F2400
G1 X119.6 Y119.6 E675.1200
G1 X100.4 Y119.6 E675.8500
G1 X100.4 Y100.4 E676.5800
;TYPE:FILL
G1 X104.00 Y101.5 F4000
G1 X104.00 Y118.5 E677.2300 F3000
G1 X107.00 Y101.5 F4000
G1 X107.00 Y118.5 E677.8800 F3000
G1 X110.00 Y101.5 F4000
G1 X110.00 Y118.5 E678.5300 F3000
G1 X113.00 Y101.5 F4000
G1 X113.00 Y118.5 E679.1800 F3000
G1 X116.00 Y101.5 F4000
G1 X116.00 Y118.5 E679.8300 F3000
;LAYER:70
;LAYER_CHANGE Z=14.20
G1 Z14.20 F1500
;TYPE:WALL-OUTER
G1 X100.0 Y100.0 F4800
G1 X120.0 Y100.0 E680.5900 F1800
G1 X120.0 Y120.0 E681.3500
G1 X100.0 Y120.0 E682.1100
G1 X100.0 Y100.0 E682.8700
;TYPE:WALL-INNER
G1 X100.4 Y100.4 F3600
G1 X119.6 Y100.4 E683.6000 F2400
G1 X119.6 Y119.6 E684.3300
G1 X100.4 Y119.6 E685.0600
G1 X100.4 Y100.4 E685.7900
;TYPE:FILL
G1 X104.00 Y101.5 F4000
G1 X104.00 Y118.5 E686.4400 F3000
G1 X107.00 Y101.5 F4000
G1 X107.00 Y118.5 E687.0900 F3000
G1 X110.00 Y101.5 F4000
G1 X110.00 Y118.5 E687.7400 F3000
G1 X113.00 Y101.5 F4000
G1 X113.00 Y118.5 E688.3900 F3000
G1 X116.00 Y101.5 F4000
G1 X116.00 Y118.5 E689.0400 F3000
;LAYER:71
;LAYER_CHANGE Z=14.40
G1 Z14.40 F1500
;TYPE:WALL-OUTER
G1 X100.0 Y100.0 F4800
G1 X120.0 Y100.0 E689.8000 F1800
G1 X120.0 Y120.0 E690.5600
G1 X100.0 Y120.0 E691.3200
G1 X100.0 Y100.0 E692.0800
;TYPE:WALL-INNER
G1 X100.4 Y100.4 F3600
G1 X119.6 Y100.4 E692.8100 F2400
G1 X119.6 Y119.6 E693.5400
G1 X100.4 Y119.6 E694.2700
G1 X100.4 Y100.4 E695.0000
;TYPE:FILL
G1 X104.00 Y101.5 F4000
G1 X104.00 Y118.5 E695.6500 F3000
G1 X107.00 Y101.5 F4000
G1 X107.00 Y118.5 E696.3000 F3000
G1 X110.00 Y101.5 F4000
G1 X110.00 Y118.5 E696.9500 F3000
G1 X113.00 Y101.5 F4000
G1 X113.00 Y118.5 E697.6000 F3000
G1 X116.00 Y101.5 F4000
G1 X116.00 Y118.5 E698.2500 F3000
;LAYER:72
;LAYER_CHANGE Z=14.60
G1 Z14.60 F1500
;TYPE:WALL-OUTER
G1 X100.0 Y100.0 F4800
G1 X120.0 Y100.0 E699.0100 F1800
G1 X120.0 Y120.0 E699.7700
G1 X100.0 Y120.0 E700.5300
G1 X100.0 Y100.0 E701.2900
;TYPE:WALL-INNER
G1 X100.4 Y100.4 F3600
G1 X119.6 Y100.4 E702.0200 F2400
G1 X119.6 Y119.6 E702.7500
G1 X100.4 Y119.6 E703.4800
G1 X100.4 Y100.4 E704.2100
;TYPE:FILL
G1 X104.00 Y101.5 F4000
G1 X104.00 Y118.5 E704.8600 F3000
G1 X107.00 Y101.5 F4000
G1 X107.00 Y118.5 E705.5100 F3000
G1 X110.00 Y101.5 F4000
G1 X110.00 Y118.5 E706.1600 F3000
G1 X113.00 Y101.5 F4000
G1 X113.00 Y118.5 E706.8100 F3000
G1 X116.00 Y101.5 F4000
G1 X116.00 Y118.5 E707.4600 F3000
;LAYER:73
;LAYER_CHANGE Z=14.80
G1 Z14.80 F1500
;TYPE:WALL-OUTER
G1 X100.0 Y100.0 F4800
G1 X120.0 Y100.0 E708.2200 F1800
G1 X120.0 Y120.0 E708.9800
G1 X100.0 Y120.0 E709.7400
G1 X100.0 Y100.0 E710.5000
;TYPE:WALL-INNER
G1 X100.4 Y100.4 F3600
G1 X119.6 Y100.4 E711.2300 F2400
G1 X119.6 Y119.6 E711.9600
G1 X100.4 Y119.6 E712.6900
G1 X100.4 Y100.4 E713.4200
;TYPE:FILL
G1 X104.00 Y101.5 F4000
G1 X104.00 Y118.5 E714.0700 F3000
G1 X107.00 Y101.5 F4000
G1 X107.00 Y118.5 E714.7200 F3000
G1 X110.00 Y101.5 F4000
G1 X110.00 Y118.5 E715.3700 F3000
G1 X113.00 Y101.5 F4000
G1 X113.00 Y118.5 E716.0200 F3000
G1 X116.00 Y101.5 F4000
G1 X116.00 Y118.5 E716.6700 F3000
;LAYER:74
;LAYER_CHANGE Z=15.00
G1 Z15.00 F1500
;TYPE:WALL-OUTER
G1 X100.0 Y100.0 F4800
G1 X120.0 Y100.0 E717.4300 F1800
G1 X120.0 Y120.0 E718.1900
G1 X100.0 Y120.0 E718.9500
G1 X100.0 Y100.0 E719.7100
;TYPE:WALL-INNER
G1 X100.4 Y100.4 F3600
G1 X119.6 Y100.4 E720.4400 F2400
G1 X119.6 Y119.6 E721.1700
G1 X100.4 Y119.6 E721.9000
G1 X100.4 Y100.4 E722.6300
;TYPE:FILL
G1 X104.00 Y101.5 F4000
G1 X104.00 Y118.5 E723.2800 F3000
G1 X107.00 Y101.5 F4000
G1 X107.00 Y118.5 E723.9300 F3000
G1 X110.00 Y101.5 F4000
G1 X110.00 Y118.5 E724.5800 F3000
G1 X113.00 Y101.5 F4000
G1 X113.00 Y118.5 E725.2300 F3000
G1 X116.00 Y101.5 F4000
G1 X116.00 Y118.5 E725.8800 F3000
;LAYER:75
;LAYER_CHANGE Z=15.20
G1 Z15.20 F1500
;TYPE:WALL-OUTER
G1 X100.0 Y100.0 F4800
G1 X120.0 Y100.0 E726.6400 F1800
G1 X120.0 Y120.0 E727.4000
G1 X100.0 Y120.0 E728.1600
G1 X100.0 Y100.0 E728.9200
;TYPE:WALL-INNER
G1 X100.4 Y100.4 F3600
G1 X119.6 Y100.4 E729.6500 F2400
G1 X119.6 Y119.6 E730.3800
G1 X100.4 Y119.6 E731.1100
G1 X100.4 Y100.4 E731.8400
;TYPE:FILL
G1 X104.00 Y101.5 F4000
G1 X104.00 Y118.5 E732.4900 F3000
G1 X107.00 Y101.5 F4000
G1 X107.00 Y118.5 E733.1400 F3000
G1 X110.00 Y101.5 F4000
G1 X110.00 Y118.5 E733.7900 F3000
G1 X113.00 Y101.5 F4000
G1 X113.00 Y118.5 E734.4400 F3000
G1 X116.00 Y101.5 F4000
G1 X116.00 Y118.5 E735.0900 F3000
;LAYER:76
;LAYER_CHANGE Z=15.40
G1 Z15.40 F1500
;TYPE:WALL-OUTER
G1 X100.0 Y100.0 F4800
G1 X120.0 Y100.0 E735.8500 F1800
G1 X120.0 Y120.0 E736.6100
G1 X100.0 Y120.0 E737.3700
G1 X100.0 Y100.0 E738.1300
;TYPE:WALL-INNER
G1 X100.4 Y100.4 F3600
G1 X119.6 Y100.4 E738.8600 F2400
G1 X119.6 Y119.6 E739.5900
G1 X100.4 Y119.6 E740.3200
G1 X100.4 Y100.4 E741.0500
;TYPE:FILL
G1 X104.00 Y101.5 F4000
G1 X104.00 Y118.5 E741.7000 F3000
G1 X107.00 Y101.5 F4000
G1 X107.00 Y118.5 E742.3500 F3000
G1 X110.00 Y101.5 F4000
G1 X110.00 Y118.5 E743.0000 F3000
G1 X113.00 Y101.5 F4000
G1 X113.00 Y118.5 E743.6500 F3000
G1 X116.00 Y101.5 F4000
G1 X116.00 Y118.5 E744.3000 F3000
;LAYER:77
;LAYER_CHANGE Z=15.60
G1 Z15.60 F1500
;TYPE:WALL-OUTER
G1 X100.0 Y100.0 F4800
G1 X120.0 Y100.0 E745.0600 F1800
G1 X120.0 Y120.0 E745.8200
G1 X100.0 Y120.0 E746.5800
G1 X100.0 Y100.0 E747.3400
;TYPE:WALL-INNER
G1 X100.4 Y100.4 F3600
G1 X119.6 Y100.4 E748.0700 F2400
G1 X119.6 Y119.6 E748.8000
G1 X100.4 Y119.6 E749.5300
G1 X100.4 Y100.4 E750.2600
;TYPE:FILL
G1 X104.00 Y101.5 F4000
G1 X104.00 Y118.5 E750.9100 F3000
G1 X107.00 Y101.5 F4000
G1 X107.00 Y118.5 E751.5600 F3000
G1 X110.00 Y101.5 F4000
G1 X110.00 Y118.5 E752.2100 F3000
G1 X113.00 Y101.5 F4000
G1 X113.00 Y118.5 E752.8600 F3000
G1 X116.00 Y101.5 F4000
G1 X116.00 Y118.5 E753.5100 F3000
;LAYER:78
;LAYER_CHANGE Z=15.80
G1 Z15.80 F1500
;TYPE:WALL-OUTER
G1 X100.0 Y100.0 F4800
G1 X120.0 Y100.0 E754.2700 F1800
G1 X120.0 Y120.0 E755.0300
G1 X100.0 Y120.0 E755.7900
G1 X100.0 Y100.0 E756.5500
;TYPE:WALL-INNER
G1 X100.4 Y100.4 F3600
G1 X119.6 Y100.4 E757.2800 F2400
G1 X119.6 Y119.6 E758.0100
G1 X100.4 Y119.6 E758.7400
G1 X100.4 Y100.4 E759.4700
;TYPE:FILL
G1 X104.00 Y101.5 F4000
G1 X104.00 Y118.5 E760.1200 F3000
G1 X107.00 Y101.5 F4000
G1 X107.00 Y118.5 E760.7700 F3000
G1 X110.00 Y101.5 F4000
G1 X110.00 Y118.5 E761.4200 F3000
G1 X113.00 Y101.5 F4000
G1 X113.00 Y118.5 E762.0700 F3000
G1 X116.00 Y101.5 F4000
G1 X116.00 Y118.5 E762.7200 F3000
;LAYER:79
;LAYER_CHANGE Z=16.00
G1 Z16.00 F1500
;TYPE:WALL-OUTER
G1 X100.0 Y100.0 F4800
G1 X120.0 Y100.0 E763.4800 F1800
G1 X120.0 Y120.0 E764.2400
G1 X100.0 Y120.0 E765.0000
G1 X100.0 Y100.0 E765.7600
;TYPE:WALL-INNER
G1 X100.4 Y100.4 F3600
G1 X119.6 Y100.4 E766.4900 F2400
G1 X119.6 Y119.6 E767.2200
G1 X100.4 Y119.6 E767.9500
G1 X100.4 Y100.4 E768.6800
;TYPE:FILL
G1 X104.00 Y101.5 F4000
G1 X104.00 Y118.5 E769.3300 F3000
G1 X107.00 Y101.5 F4000
G1 X107.00 Y118.5 E769.9800 F3000
G1 X110.00 Y101.5 F4000
G1 X110.00 Y118.5 E770.6300 F3000
G1 X113.00 Y101.5 F4000
G1 X113.00 Y118.5 E771.2800 F3000
G1 X116.00 Y101.5 F4000
G1 X116.00 Y118.5 E771.9300 F3000
;LAYER:80
;LAYER_CHANGE Z=16.20
G1 Z16.20 F1500
;TYPE:WALL-OUTER
G1 X100.0 Y100.0 F4800
G1 X120.0 Y100.0 E772.6900 F1800
G1 X120.0 Y120.0 E773.4500
G1 X100.0 Y120.0 E774.2100
G1 X100.0 Y100.0 E774.9700
;TYPE:WALL-INNER
G1 X100.4 Y100.4 F3600
G1 X119.6 Y100.4 E775.7000 F2400
G1 X119.6 Y119.6 E776.4300
G1 X100.4 Y119.6 E777.1600
G1 X100.4 Y100.4 E777.8900
;TYPE:FILL
G1 X104.00 Y101.5 F4000
G1 X104.00 Y118.5 E778.5400 F3000
G1 X107.00 Y101.5 F4000
G1 X107.00 Y118.5 E779.1900 F3000
G1 X110.00 Y101.5 F4000
G1 X110.00 Y118.5 E779.8400 F3000
G1 X113.00 Y101.5 F4000
G1 X113.00 Y118.5 E780.4900 F3000
G1 X116.00 Y101.5 F4000
G1 X116.00 Y118.5 E781.1400 F3000
;LAYER:81
;LAYER_CHANGE Z=16.40
G1 Z16.40 F1500
;TYPE:WALL-OUTER
G1 X100.0 Y100.0 F4800
G1 X120.0 Y100.0 E781.9000 F1800
G1 X120.0 Y120.0 E782.6600
G1 X100.0 Y120.0 E783.4200
G1 X100.0 Y100.0 E784.1800
;TYPE:WALL-INNER
G1 X100.4 Y100.4 F3600
G1 X119.6 Y100.4 E784.9100 F2400
G1 X119.6 Y119.6 E785.6400
G1 X100.4 Y119.6 E786.3700
G1 X100.4 Y100.4 E787.1000
;TYPE:FILL
G1 X104.00 Y101.5 F4000
G1 X104.00 Y118.5 E787.7500 F3000
G1 X107.00 Y101.5 F4000
G1 X107.00 Y118.5 E788.4000 F3000
G1 X110.00 Y101.5 F4000
G1 X110.00 Y118.5 E789.0500 F3000
G1 X113.00 Y101.5 F4000
G1 X113.00 Y118.5 E789.7000 F3000
G1 X116.00 Y101.5 F4000
G1 X116.00 Y118.5 E790.3500 F3000
;LAYER:82
;LAYER_CHANGE Z=16.60
G1 Z16.60 F1500
;TYPE:WALL-OUTER
G1 X100.0 Y100.0 F4800
G1 X120.0 Y100.0 E791.1100 F1800
G1 X120.0 Y120.0 E791.8700
G1 X100.0 Y120.0 E792.6300
G1 X100.0 Y100.0 E793.3900
;TYPE:WALL-INNER
G1 X100.4 Y100.4 F3600
G1 X119.6 Y100.4 E794.1200 F2400
G1 X119.6 Y119.6 E794.8500
G1 X100.4 Y119.6 E795.5800
G1 X100.4 Y100.4 E796.3100
;TYPE:FILL
G1 X104.00 Y101.5 F4000
G1 X104.00 Y118.5 E796.9600 F3000
G1 X107.00 Y101.5 F4000
G1 X107.00 Y118.5 E797.6100 F3000
G1 X110.00 Y101.5 F4000
G1 X110.00 Y118.5 E798.2600 F3000
G1 X113.00 Y101.5 F4000
G1 X113.00 Y118.5 E798.9100 F3000
G1 X116.00 Y101.5 F4000
G1 X116.00 Y118.5 E799.5600 F3000
;LAYER:83
;LAYER_CHANGE Z=16.80
G1 Z16.80 F1500
;TYPE:WALL-OUTER
G1 X100.0 Y100.0 F4800
G1 X120.0 Y100.0 E800.3200 F1800
G1 X120.0 Y120.0 E801.0800
G1 X100.0 Y120.0 E801.8400
G1 X100.0 Y100.0 E802.6000
;TYPE:WALL-INNER
G1 X100.4 Y100.4 F3600
G1 X119.6 Y100.4 E803.3300 F2400
G1 X119.6 Y119.6 E804.0600
G1 X100.4 Y119.6 E804.7900
G1 X100.4 Y100.4 E805.5200
;TYPE:FILL
G1 X104.00 Y101.5 F4000
G1 X104.00 Y118.5 E806.1700 F3000
G1 X107.00 Y101.5 F4000
G1 X107.00 Y118.5 E806.8200 F3000
G1 X110.00 Y101.5 F4000
G1 X110.00 Y118.5 E807.4700 F3000
G1 X113.00 Y101.5 F4000
G1 X113.00 Y118.5 E808.1200 F3000
G1 X116.00 Y101.5 F4000
G1 X116.00 Y118.5 E808.7700 F3000
;LAYER:84
;LAYER_CHANGE Z=17.00
G1 Z17.00 F1500
;TYPE:WALL-OUTER
G1 X100.0 Y100.0 F4800
G1 X120.0 Y100.0 E809.5300 F1800
G1 X120.0 Y120.0 E810.2900
G1 X100.0 Y120.0 E811.0500
G1 X100.0 Y100.0 E811.8100
;TYPE:WALL-INNER
G1 X100.4 Y100.4 F3600
G1 X119.6 Y100.4 E812.5400 F2400
G1 X119.6 Y119.6 E813.2700
G1 X100.4 Y119.6 E814.0000
G1 X100.4 Y100.4 E814.7300
;TYPE:FILL
G1 X104.00 Y101.5 F4000
G1 X104.00 Y118.5 E815.3800 F3000
G1 X107.00 Y101.5 F4000
G1 X107.00 Y118.5 E816.0300 F3000
G1 X110.00 Y101.5 F4000
G1 X110.00 Y118.5 E816.6800 F3000
G1 X113.00 Y101.5 F4000
G1 X113.00 Y118.5 E817.3300 F3000
G1 X116.00 Y101.5 F4000
G1 X116.00 Y118.5 E817.9800 F3000
;LAYER:85
;LAYER_CHANGE Z=17.20
G1 Z17.20 F1500
;TYPE:WALL-OUTER
G1 X100.0 Y100.0 F4800
G1 X120.0 Y100.0 E818.7400 F1800
G1 X120.0 Y120.0 E819.5000
G1 X100.0 Y120.0 E820.2600
G1 X100.0 Y100.0 E821.0200
;TYPE:WALL-INNER
G1 X100.4 Y100.4 F3600
G1 X119.6 Y100.4 E821.7500 F2400
G1 X119.6 Y119.6 E822.4800
G1 X100.4 Y119.6 E823.2100
G1 X100.4 Y100.4 E823.9400
;TYPE:FILL
G1 X104.00 Y101.5 F4000
G1 X104.00 Y118.5 E824.5900 F3000
G1 X107.00 Y101.5 F4000
G1 X107.00 Y118.5 E825.2400 F3000
G1 X110.00 Y101.5 F4000
G1 X110.00 Y118.5 E825.8900 F3000
G1 X113.00 Y101.5 F4000
G1 X113.00 Y118.5 E826.5400 F3000
G1 X116.00 Y101.5 F4000
G1 X116.00 Y118.5 E827.1900 F3000
;LAYER:86
;LAYER_CHANGE Z=17.40
G1 Z17.40 F1500
;TYPE:WALL-OUTER
G1 X100.0 Y100.0 F4800
G1 X120.0 Y100.0 E827.9500 F1800
G1 X120.0 Y120.0 E828.7100
G1 X100.0 Y120.0 E829.4700
G1 X100.0 Y100.0 E830.2300
;TYPE:WALL-INNER
G1 X100.4 Y100.4 F3600
G1 X119.6 Y100.4 E830.9600 F2400
G1 X119.6 Y119.6 E831.6900
G1 X100.4 Y119.6 E832.4200
G1 X100.4 Y100.4 E833.1500
;TYPE:FILL
G1 X104.00 Y101.5 F4000
G1 X104.00 Y118.5 E833.8000 F3000
G1 X107.00 Y101.5 F4000
G1 X107.00 Y118.5 E834.4500 F3000
G1 X110.00 Y101.5 F4000
G1 X110.00 Y118.5 E835.1000 F3000
G1 X113.00 Y101.5 F4000
G1 X113.00 Y118.5 E835.7500 F3000
G1 X116.00 Y101.5 F4000
G1 X116.00 Y118.5 E836.4000 F3000
;LAYER:87
;LAYER_CHANGE Z=17.60
G1 Z17.60 F1500
;TYPE:WALL-OUTER
G1 X100.0 Y100.0 F4800
G1 X120.0 Y100.0 E837.1600 F1800
G1 X120.0 Y120.0 E837.9200
G1 X100.0 Y120.0 E838.6800
G1 X100.0 Y100.0 E839.4400
;TYPE:WALL-INNER
G1 X100.4 Y100.4 F3600
G1 X119.6 Y100.4 E840.1700 F2400
G1 X119.6 Y119.6 E840.9000
G1 X100.4 Y119.6 E841.6300
G1 X100.4 Y100.4 E842.3600
;TYPE:FILL
G1 X104.00 Y101.5 F4000
G1 X104.00 Y118.5 E843.0100 F3000
G1 X107.00 Y101.5 F4000
G1 X107.00 Y118.5 E843.6600 F3000
G1 X110.00 Y101.5 F4000
G1 X110.00 Y118.5 E844.3100 F3000
G1 X113.00 Y101.5 F4000
G1 X113.00 Y118.5 E844.9600 F3000
G1 X116.00 Y101.5 F4000
G1 X116.00 Y118.5 E845.6100 F3000
;LAYER:88
;LAYER_CHANGE Z=17.80
G1 Z17.80 F1500
;TYPE:WALL-OUTER
G1 X100.0 Y100.0 F4800
G1 X120.0 Y100.0 E846.3700 F1800
G1 X120.0 Y120.0 E847.1300
G1 X100.0 Y120.0 E847.8900
G1 X100.0 Y100.0 E848.6500
;TYPE:WALL-INNER
G1 X100.4 Y100.4 F3600
G1 X119.6 Y100.4 E849.3800 F2400
G1 X119.6 Y119.6 E850.1100
G1 X100.4 Y119.6 E850.8400
G1 X100.4 Y100.4 E851.5700
;TYPE:FILL
G1 X104.00 Y101.5 F4000
G1 X104.00 Y118.5 E852.2200 F3000
G1 X107.00 Y101.5 F4000
G1 X107.00 Y118.5 E852.8700 F3000
G1 X110.00 Y101.5 F4000
G1 X110.00 Y118.5 E853.5200 F3000
G1 X113.00 Y101.5 F4000
G1 X113.00 Y118.5 E854.1700 F3000
G1 X116.00 Y101.5 F4000
G1 X116.00 Y118.5 E854.8200 F3000
;LAYER:89
;LAYER_CHANGE Z=18.00
G1 Z18.00 F1500
;TYPE:WALL-OUTER
G1 X100.0 Y100.0 F4800
G1 X120.0 Y100.0 E855.5800 F1800
G1 X120.0 Y120.0 E856.3400
G1 X100.0 Y120.0 E857.1000
G1 X100.0 Y100.0 E857.8600
;TYPE:WALL-INNER
G1 X100.4 Y100.4 F3600
G1 X119.6 Y100.4 E858.5900 F2400
G1 X119.6 Y119.6 E859.3200
G1 X100.4 Y119.6 E860.0500
G1 X100.4 Y100.4 E860.7800
;TYPE:FILL
G1 X104.00 Y101.5 F4000
G1 X104.00 Y118.5 E861.4300 F3000
G1 X107.00 Y101.5 F4000
G1 X107.00 Y118.5 E862.0800 F3000
G1 X110.00 Y101.5 F4000
G1 X110.00 Y118.5 E862.7300 F3000
G1 X113.00 Y101.5 F4000
G1 X113.00 Y118.5 E863.3800 F3000
G1 X116.00 Y101.5 F4000
G1 X116.00 Y118.5 E864.0300 F3000
;LAYER:90
;LAYER_CHANGE Z=18.20
G1 Z18.20 F1500
;TYPE:WALL-OUTER
G1 X100.0 Y100.0 F4800
G1 X120.0 Y100.0 E864.7900 F1800
G1 X120.0 Y120.0 E865.5500
G1 X100.0 Y120.0 E866.3100
G1 X100.0 Y100.0 E867.0700
;TYPE:WALL-INNER
G1 X100.4 Y100.4 F3600
G1 X119.6 Y100.4 E867.8000 F2400
G1 X119.6 Y119.6 E868.5300
G1 X100.4 Y119.6 E869.2600
G1 X100.4 Y100.4 E869.9900
;TYPE:FILL
G1 X104.00 Y101.5 F4000
G1 X104.00 Y118.5 E870.6400 F3000
G1 X107.00 Y101.5 F4000
G1 X107.00 Y118.5 E871.2900 F3000
G1 X110.00 Y101.5 F4000
G1 X110.00 Y118.5 E871.9400 F3000
G1 X113.00 Y101.5 F4000
G1 X113.00 Y118.5 E872.5900 F3000
G1 X116.00 Y101.5 F4000
G1 X116.00 Y118.5 E873.2400 F3000
;LAYER:91
;LAYER_CHANGE Z=18.40
G1 Z18.40 F1500
;TYPE:WALL-OUTER
G1 X100.0 Y100.0 F4800
G1 X120.0 Y100.0 E874.0000 F1800
G1 X120.0 Y120.0 E874.7600
G1 X100.0 Y120.0 E875.5200
G1 X100.0 Y100.0 E876.2800
;TYPE:WALL-INNER
G1 X100.4 Y100.4 F3600
G1 X119.6 Y100.4 E877.0100 F2400
G1 X119.6 Y119.6 E877.7400
G1 X100.4 Y119.6 E878.4700
G1 X100.4 Y100.4 E879.2000
;TYPE:FILL
G1 X104.00 Y101.5 F4000
G1 X104.00 Y118.5 E879.8500 F3000
G1 X107.00 Y101.5 F4000
G1 X107.00 Y118.5 E880.5000 F3000
G1 X110.00 Y101.5 F4000
G1 X110.00 Y118.5 E881.1500 F3000
G1 X113.00 Y101.5 F4000
G1 X113.00 Y118.5 E881.8000 F3000
G1 X116.00 Y101.5 F4000
G1 X116.00 Y118.5 E882.4500 F3000
;LAYER:92
;LAYER_CHANGE Z=18.60
G1 Z18.60 F1500
;TYPE:WALL-OUTER
G1 X100.0 Y100.0 F4800
G1 X120.0 Y100.0 E883.2100 F1800
G1 X120.0 Y120.0 E883.9700
G1 X100.0 Y120.0 E884.7300
G1 X100.0 Y100.0 E885.4900
;TYPE:WALL-INNER
G1 X100.4 Y100.4 F3600
G1 X119.6 Y100.4 E886.2200 F2400
G1 X119.6 Y119.6 E886.9500
G1 X100.4 Y119.6 E887.6800
G1 X100.4 Y100.4 E888.4100
;TYPE:FILL
G1 X104.00 Y101.5 F4000
G1 X104.00 Y118.5 E889.0600 F3000
G1 X107.00 Y101.5 F4000
G1 X107.00 Y118.5 E889.7100 F3000
G1 X110.00 Y101.5 F4000
G1 X110.00 Y118.5 E890.3600 F3000
G1 X113.00 Y101.5 F4000
G1 X113.00 Y118.5 E891.0100 F3000
G1 X116.00 Y101.5 F4000
G1 X116.00 Y118.5 E891.6600 F3000
;LAYER:93
;LAYER_CHANGE Z=18.80
G1 Z18.80 F1500
;TYPE:WALL-OUTER
G1 X100.0 Y100.0 F4800
G1 X120.0 Y100.0 E892.4200 F1800
G1 X120.0 Y120.0 E893.1800
G1 X100.0 Y120.0 E893.9400
G1 X100.0 Y100.0 E894.7000
;TYPE:WALL-INNER
G1 X100.4 Y100.4 F3600
G1 X119.6 Y100.4 E895.4300 F2400
G1 X119.6 Y119.6 E896.1600
G1 X100.4 Y119.6 E896.8900
G1 X100.4 Y100.4 E897.6200
;TYPE:FILL
G1 X104.00 Y101.5 F4000
G1 X104.00 Y118.5 E898.2700 F3000
G1 X107.00 Y101.5 F4000
G1 X107.00 Y118.5 E898.9200 F3000
G1 X110.00 Y101.5 F4000
G1 X110.00 Y118.5 E899.5700 F3000
G1 X113.00 Y101.5 F4000
G1 X113.00 Y118.5 E900.2200 F3000
G1 X116.00 Y101.5 F4000
G1 X116.00 Y118.5 E900.8700 F3000
;LAYER:94
;LAYER_CHANGE Z=19.00
G1 Z19.00 F1500
;TYPE:WALL-OUTER
G1 X100.0 Y100.0 F4800
G1 X120.0 Y100.0 E901.6300 F1800
G1 X120.0 Y120.0 E902.3900
G1 X100.0 Y120.0 E903.1500
G1 X100.0 Y100.0 E903.9100
;TYPE:WALL-INNER
G1 X100.4 Y100.4 F3600
G1 X119.6 Y100.4 E904.6400 F2400
G1 X119.6 Y119.6 E905.3700
G1 X100.4 Y119.6 E906.1000
G1 X100.4 Y100.4 E906.8300
;TYPE:FILL
G1 X104.00 Y101.5 F4000
G1 X104.00 Y118.5 E907.4800 F3000
G1 X107.00 Y101.5 F4000
G1 X107.00 Y118.5 E908.1300 F3000
G1 X110.00 Y101.5 F4000
G1 X110.00 Y118.5 E908.7800 F3000
G1 X113.00 Y101.5 F4000
G1 X113.00 Y118.5 E909.4300 F3000
G1 X116.00 Y101.5 F4000
G1 X116.00 Y118.5 E910.0800 F3000
;LAYER:95
;LAYER_CHANGE Z=19.20
G1 Z19.20 F1500
;TYPE:WALL-OUTER
G1 X100.0 Y100.0 F4800
G1 X120.0 Y100.0 E910.8400 F1800
G1 X120.0 Y120.0 E911.6000
G1 X100.0 Y120.0 E912.3600
G1 X100.0 Y100.0 E913.1200
;TYPE:WALL-INNER
G1 X100.4 Y100.4 F3600
G1 X119.6 Y100.4 E913.8500 F2400
G1 X119.6 Y119.6 E914.5800
G1 X100.4 Y119.6 E915.3100
G1 X100.4 Y100.4 E916.0400
;TYPE:FILL
G1 X104.00 Y101.5 F4000
G1 X104.00 Y118.5 E916.6900 F3000
G1 X107.00 Y101.5 F4000
G1 X107.00 Y118.5 E917.3400 F3000
G1 X110.00 Y101.5 F4000
G1 X110.00 Y118.5 E917.9900 F3000
G1 X113.00 Y101.5 F4000
G1 X113.00 Y118.5 E918.6400 F3000
G1 X116.00 Y101.5 F4000
G1 X116.00 Y118.5 E919.2900 F3000
;LAYER:96
;LAYER_CHANGE Z=19.40
G1 Z19.40 F1500
;TYPE:WALL-OUTER
G1 X100.0 Y100.0 F4800
G1 X120.0 Y100.0 E920.0500 F1800
G1 X120.0 Y120.0 E920.8100
G1 X100.0 Y120.0 E921.5700
G1 X100.0 Y100.0 E922.3300
;TYPE:WALL-INNER
G1 X100.4 Y100.4 F3600
G1 X119.6 Y100.4 E923.0600 F2400
G1 X119.6 Y119.6 E923.7900
G1 X100.4 Y119.6 E924.5200
G1 X100.4 Y100.4 E925.2500
;TYPE:FILL
G1 X104.00 Y101.5 F4000
G1 X104.00 Y118.5 E925.9000 F3000
G1 X107.00 Y101.5 F4000
G1 X107.00 Y118.5 E926.5500 F3000
G1 X110.00 Y101.5 F4000
G1 X110.00 Y118.5 E927.2000 F3000
G1 X113.00 Y101.5 F4000
G1 X113.00 Y118.5 E927.8500 F3000
G1 X116.00 Y101.5 F4000
G1 X116.00 Y118.5 E928.5000 F3000
;LAYER:97
;LAYER_CHANGE Z=19.60
G1 Z19.60 F1500
;TYPE:WALL-OUTER
G1 X100.0 Y100.0 F4800
G1 X120.0 Y100.0 E929.2600 F1800
G1 X120.0 Y120.0 E930.0200
G1 X100.0 Y120.0 E930.7800
G1 X100.0 Y100.0 E931.5400
;TYPE:WALL-INNER
G1 X100.4 Y100.4 F3600
G1 X119.6 Y100.4 E932.2700 F2400
G1 X119.6 Y119.6 E933.0000
G1 X100.4 Y119.6 E933.7300
G1 X100.4 Y100.4 E934.4600
;TYPE:SKIN
G1 X101.50 Y101.0 F3600
G1 X101.50 Y119.0 E935.1400 F2700
G1 X102.30 Y101.0 F3600
G1 X102.30 Y119.0 E935.8200 F2700
G1 X103.10 Y101.0 F3600
G1 X103.10 Y119.0 E936.5000 F2700
G1 X103.90 Y101.0 F3600
G1 X103.90 Y119.0 E937.1800 F2700
G1 X104.70 Y101.0 F3600
G1 X104.70 Y119.0 E937.8600 F2700
G1 X105.50 Y101.0 F3600
G1 X105.50 Y119.0 E938.5400 F2700
G1 X106.30 Y101.0 F3600
G1 X106.30 Y119.0 E939.2200 F2700
G1 X107.10 Y101.0 F3600
G1 X107.10 Y119.0 E939.9000 F2700
G1 X107.90 Y101.0 F3600
G1 X107.90 Y119.0 E940.5800 F2700
G1 X108.70 Y101.0 F3600
G1 X108.70 Y119.0 E941.2600 F2700
G1 X109.50 Y101.0 F3600
G1 X109.50 Y119.0 E941.9400 F2700
G1 X110.30 Y101.0 F3600
G1 X110.30 Y119.0 E942.6200 F2700
G1 X111.10 Y101.0 F3600
G1 X111.10 Y119.0 E943.3000 F2700
G1 X111.90 Y101.0 F3600
G1 X111.90 Y119.0 E943.9800 F2700
G1 X112.70 Y101.0 F3600
G1 X112.70 Y119.0 E944.6600 F2700
G1 X113.50 Y101.0 F3600
G1 X113.50 Y119.0 E945.3400 F2700
G1 X114.30 Y101.0 F3600
G1 X114.30 Y119.0 E946.0200 F2700
G1 X115.10 Y101.0 F3600
G1 X115.10 Y119.0 E946.7000 F2700
G1 X115.90 Y101.0 F3600
G1 X115.90 Y119.0 E947.3800 F2700
G1 X116.70 Y101.0 F3600
G1 X116.70 Y119.0 E948.0600 F2700
G1 X117.50 Y101.0 F3600
G1 X117.50 Y119.0 E948.7400 F2700
G1 X118.30 Y101.0 F3600
G1 X118.30 Y119.0 E949.4200 F2700
;LAYER:98
;LAYER_CHANGE Z=19.80
G1 Z19.80 F1500
;TYPE:WALL-OUTER
G1 X100.0 Y100.0 F4800
G1 X120.0 Y100.0 E950.1800 F1800
G1 X120.0 Y120.0 E950.9400
G1 X100.0 Y120.0 E951.7000
G1 X100.0 Y100.0 E952.4600
;TYPE:WALL-INNER
G1 X100.4 Y100.4 F3600
G1 X119.6 Y100.4 E953.1900 F2400
G1 X119.6 Y119.6 E953.9200
G1 X100.4 Y119.6 E954.6500
G1 X100.4 Y100.4 E955.3800
;TYPE:SKIN
G1 X101.50 Y101.0 F3600
G1 X101.50 Y119.0 E956.0600 F2700
G1 X102.30 Y101.0 F3600
G1 X102.30 Y119.0 E956.7400 F2700
G1 X103.10 Y101.0 F3600
G1 X103.10 Y119.0 E957.4200 F2700
G1 X103.90 Y101.0 F3600
G1 X103.90 Y119.0 E958.1000 F2700
G1 X104.70 Y101.0 F3600
G1 X104.70 Y119.0 E958.7800 F2700
G1 X105.50 Y101.0 F3600
G1 X105.50 Y119.0 E959.4600 F2700
G1 X106.30 Y101.0 F3600
G1 X106.30 Y119.0 E960.1400 F2700
G1 X107.10 Y101.0 F3600
G1 X107.10 Y119.0 E960.8200 F2700
G1 X107.90 Y101.0 F3600
G1 X107.90 Y119.0 E961.5000 F2700
G1 X108.70 Y101.0 F3600
G1 X108.70 Y119.0 E962.1800 F2700
G1 X109.50 Y101.0 F3600
G1 X109.50 Y119.0 E962.8600 F2700
G1 X110.30 Y101.0 F3600
G1 X110.30 Y119.0 E963.5400 F2700
G1 X111.10 Y101.0 F3600
G1 X111.10 Y119.0 E964.2200 F2700
G1 X111.90 Y101.0 F3600
G1 X111.90 Y119.0 E964.9000 F2700
G1 X112.70 Y101.0 F3600
G1 X112.70 Y119.0 E965.5800 F2700
G1 X113.50 Y101.0 F3600
G1 X113.50 Y119.0 E966.2600 F2700
G1 X114.30 Y101.0 F3600
G1 X114.30 Y119.0 E966.9400 F2700
G1 X115.10 Y101.0 F3600
G1 X115.10 Y119.0 E967.6200 F2700
G1 X115.90 Y101.0 F3600
G1 X115.90 Y119.0 E968.3000 F2700
G1 X116.70 Y101.0 F3600
G1 X116.70 Y119.0 E968.9800 F2700
G1 X117.50 Y101.0 F3600
G1 X117.50 Y119.0 E969.6600 F2700
G1 X118.30 Y101.0 F3600
G1 X118.30 Y119.0 E970.3400 F2700
;LAYER:99
;LAYER_CHANGE Z=20.00
G1 Z20.00 F1500
;TYPE:WALL-OUTER
G1 X100.0 Y100.0 F4800
G1 X120.0 Y100.0 E971.1000 F1800
G1 X120.0 Y120.0 E971.8600
G1 X100.0 Y120.0 E972.6200
G1 X100.0 Y100.0 E973.3800
;TYPE:WALL-INNER
G1 X100.4 Y100.4 F3600
G1 X119.6 Y100.4 E974.1100 F2400
G1 X119.6 Y119.6 E974.8400
G1 X100.4 Y119.6 E975.5700
G1 X100.4 Y100.4 E976.3000
;TYPE:SKIN
G1 X101.50 Y101.0 F3600
G1 X101.50 Y119.0 E976.9800 F2700
G1 X102.30 Y101.0 F3600
G1 X102.30 Y119.0 E977.6600 F2700
G1 X103.10 Y101.0 F3600
G1 X103.10 Y119.0 E978.3400 F2700
G1 X103.90 Y101.0 F3600
G1 X103.90 Y119.0 E979.0200 F2700
G1 X104.70 Y101.0 F3600
G1 X104.70 Y119.0 E979.7000 F2700
G1 X105.50 Y101.0 F3600
G1 X105.50 Y119.0 E980.3800 F2700
G1 X106.30 Y101.0 F3600
G1 X106.30 Y119.0 E981.0600 F2700
G1 X107.10 Y101.0 F3600
G1 X107.10 Y119.0 E981.7400 F2700
G1 X107.90 Y101.0 F3600
G1 X107.90 Y119.0 E982.4200 F2700
G1 X108.70 Y101.0 F3600
G1 X108.70 Y119.0 E983.1000 F2700
G1 X109.50 Y101.0 F3600
G1 X109.50 Y119.0 E983.7800 F2700
G1 X110.30 Y101.0 F3600
G1 X110.30 Y119.0 E984.4600 F2700
G1 X111.10 Y101.0 F3600
G1 X111.10 Y119.0 E985.1400 F2700
G1 X111.90 Y101.0 F3600
G1 X111.90 Y119.0 E985.8200 F2700
G1 X112.70 Y101.0 F3600
G1 X112.70 Y119.0 E986.5000 F2700
G1 X113.50 Y101.0 F3600
G1 X113.50 Y119.0 E987.1800 F2700
G1 X114.30 Y101.0 F3600
G1 X114.30 Y119.0 E987.8600 F2700
G1 X115.10 Y101.0 F3600
G1 X115.10 Y119.0 E988.5400 F2700
G1 X115.90 Y101.0 F3600
G1 X115.90 Y119.0 E989.2200 F2700
G1 X116.70 Y101.0 F3600
G1 X116.70 Y119.0 E989.9000 F2700
G1 X117.50 Y101.0 F3600
G1 X117.50 Y119.0 E990.5800 F2700
G1 X118.30 Y101.0 F3600
G1 X118.30 Y119.0 E991.2600 F2700
M104 S0
M140 S0
M107
G91
G1 Z5 F3000
G90
G28 X0 Y0
M84