; 3D PRINTER SIMULATOR - QUICK TEST PAD
; Dimensions: 15.0 x 15.0 x 1.0 mm
G21
G90
M82
M140 S60
M104 S205
M190 S60
M109 S205
G28
G92 E0
G1 Z5.0 F3000
G1 X102.5 Y102.5 F6000
;LAYER:0
;LAYER_CHANGE Z=0.20
G1 Z0.20 F1200
;TYPE:WALL-OUTER
G1 X102.5 Y102.5 F3000
G1 X117.5 Y102.5 E0.5250 F1800
G1 X117.5 Y117.5 E1.0500
G1 X102.5 Y117.5 E1.5750
G1 X102.5 Y102.5 E2.1000
;TYPE:WALL-INNER
G1 X103.0 Y103.0 F3000
G1 X117.0 Y103.0 E2.5900 F2400
G1 X117.0 Y117.0 E3.0800
G1 X103.0 Y117.0 E3.5700
G1 X103.0 Y103.0 E4.0600
;TYPE:FILL
G1 X104.0 Y104.50 F3600
G1 X116.0 Y104.50 E4.4800 F3000
G1 X104.0 Y106.00 F3600
G1 X116.0 Y106.00 E4.9000 F3000
G1 X104.0 Y107.50 F3600
G1 X116.0 Y107.50 E5.3200 F3000
G1 X104.0 Y109.00 F3600
G1 X116.0 Y109.00 E5.7400 F3000
G1 X104.0 Y110.50 F3600
G1 X116.0 Y110.50 E6.1600 F3000
G1 X104.0 Y112.00 F3600
G1 X116.0 Y112.00 E6.5800 F3000
G1 X104.0 Y113.50 F3600
G1 X116.0 Y113.50 E7.0000 F3000
G1 X104.0 Y115.00 F3600
G1 X116.0 Y115.00 E7.4200 F3000
;LAYER:1
;LAYER_CHANGE Z=0.40
G1 Z0.40 F1200
M106 S255
;TYPE:WALL-OUTER
G1 X102.5 Y102.5 F3000
G1 X117.5 Y102.5 E7.9450 F1800
G1 X117.5 Y117.5 E8.4700
G1 X102.5 Y117.5 E8.9950
G1 X102.5 Y102.5 E9.5200
;TYPE:WALL-INNER
G1 X103.0 Y103.0 F3000
G1 X117.0 Y103.0 E10.0100 F2400
G1 X117.0 Y117.0 E10.5000
G1 X103.0 Y117.0 E10.9900
G1 X103.0 Y103.0 E11.4800
;TYPE:FILL
G1 X104.0 Y104.50 F3600
G1 X116.0 Y104.50 E11.9000 F3000
G1 X104.0 Y106.00 F3600
G1 X116.0 Y106.00 E12.3200 F3000
G1 X104.0 Y107.50 F3600
G1 X116.0 Y107.50 E12.7400 F3000
G1 X104.0 Y109.00 F3600
G1 X116.0 Y109.00 E13.1600 F3000
G1 X104.0 Y110.50 F3600
G1 X116.0 Y110.50 E13.5800 F3000
G1 X104.0 Y112.00 F3600
G1 X116.0 Y112.00 E14.0000 F3000
G1 X104.0 Y113.50 F3600
G1 X116.0 Y113.50 E14.4200 F3000
G1 X104.0 Y115.00 F3600
G1 X116.0 Y115.00 E14.8400 F3000
;LAYER:2
;LAYER_CHANGE Z=0.60
G1 Z0.60 F1200
;TYPE:WALL-OUTER
G1 X102.5 Y102.5 F3000
G1 X117.5 Y102.5 E15.3650 F1800
G1 X117.5 Y117.5 E15.8900
G1 X102.5 Y117.5 E16.4150
G1 X102.5 Y102.5 E16.9400
;TYPE:WALL-INNER
G1 X103.0 Y103.0 F3000
G1 X117.0 Y103.0 E17.4300 F2400
G1 X117.0 Y117.0 E17.9200
G1 X103.0 Y117.0 E18.4100
G1 X103.0 Y103.0 E18.9000
;TYPE:FILL
G1 X104.0 Y104.50 F3600
G1 X116.0 Y104.50 E19.3200 F3000
G1 X104.0 Y106.00 F3600
G1 X116.0 Y106.00 E19.7400 F3000
G1 X104.0 Y107.50 F3600
G1 X116.0 Y107.50 E20.1600 F3000
G1 X104.0 Y109.00 F3600
G1 X116.0 Y109.00 E20.5800 F3000
G1 X104.0 Y110.50 F3600
G1 X116.0 Y110.50 E21.0000 F3000
G1 X104.0 Y112.00 F3600
G1 X116.0 Y112.00 E21.4200 F3000
G1 X104.0 Y113.50 F3600
G1 X116.0 Y113.50 E21.8400 F3000
G1 X104.0 Y115.00 F3600
G1 X116.0 Y115.00 E22.2600 F3000
;LAYER:3
;LAYER_CHANGE Z=0.80
G1 Z0.80 F1200
;TYPE:WALL-OUTER
G1 X102.5 Y102.5 F3000
G1 X117.5 Y102.5 E22.7850 F1800
G1 X117.5 Y117.5 E23.3100
G1 X102.5 Y117.5 E23.8350
G1 X102.5 Y102.5 E24.3600
;TYPE:WALL-INNER
G1 X103.0 Y103.0 F3000
G1 X117.0 Y103.0 E24.8500 F2400
G1 X117.0 Y117.0 E25.3400
G1 X103.0 Y117.0 E25.8300
G1 X103.0 Y103.0 E26.3200
;TYPE:FILL
G1 X104.0 Y104.50 F3600
G1 X116.0 Y104.50 E26.7400 F3000
G1 X104.0 Y106.00 F3600
G1 X116.0 Y106.00 E27.1600 F3000
G1 X104.0 Y107.50 F3600
G1 X116.0 Y107.50 E27.5800 F3000
G1 X104.0 Y109.00 F3600
G1 X116.0 Y109.00 E28.0000 F3000
G1 X104.0 Y110.50 F3600
G1 X116.0 Y110.50 E28.4200 F3000
G1 X104.0 Y112.00 F3600
G1 X116.0 Y112.00 E28.8400 F3000
G1 X104.0 Y113.50 F3600
G1 X116.0 Y113.50 E29.2600 F3000
G1 X104.0 Y115.00 F3600
G1 X116.0 Y115.00 E29.6800 F3000
;LAYER:4
;LAYER_CHANGE Z=1.00
G1 Z1.00 F1200
;TYPE:WALL-OUTER
G1 X102.5 Y102.5 F3000
G1 X117.5 Y102.5 E30.2050 F1800
G1 X117.5 Y117.5 E30.7300
G1 X102.5 Y117.5 E31.2550
G1 X102.5 Y102.5 E31.7800
;TYPE:WALL-INNER
G1 X103.0 Y103.0 F3000
G1 X117.0 Y103.0 E32.2700 F2400
G1 X117.0 Y117.0 E32.7600
G1 X103.0 Y117.0 E33.2500
G1 X103.0 Y103.0 E33.7400
;TYPE:FILL
G1 X104.0 Y104.50 F3600
G1 X116.0 Y104.50 E34.1600 F3000
G1 X104.0 Y106.00 F3600
G1 X116.0 Y106.00 E34.5800 F3000
G1 X104.0 Y107.50 F3600
G1 X116.0 Y107.50 E35.0000 F3000
G1 X104.0 Y109.00 F3600
G1 X116.0 Y109.00 E35.4200 F3000
G1 X104.0 Y110.50 F3600
G1 X116.0 Y110.50 E35.8400 F3000
G1 X104.0 Y112.00 F3600
G1 X116.0 Y112.00 E36.2600 F3000
G1 X104.0 Y113.50 F3600
G1 X116.0 Y113.50 E36.6800 F3000
G1 X104.0 Y115.00 F3600
G1 X116.0 Y115.00 E37.1000 F3000
M104 S0
M140 S0
M107
G91
G1 Z10 F1200
G90
G28 X0 Y0
M84